Company Name,Link,Region,Address,Street,Location,ZipCode,City,gcode
AE Projects,https://www.ae.be/en/,Flanders,"Interleuvenlaan 27/B, 3001 Leuven, Belgium",Interleuvenlaan 27/B,3001 Leuven,3001,Leuven,"27b, Interleuvenlaan, Leuvens Haasrode, Leuven, Vlaams-Brabant, Vlaanderen, 3001, België / Belgique / Belgien"
Agilytic,http://www.agilytic.be,Wallonia,"Rue F. Dubois 2, 1310 La Hulpe, Belgium",Rue F. Dubois 2,1310 La Hulpe,1310,La Hulpe,
Aptus,https://www.aptus.be/#,Flanders,"Meensesteenweg 449, 8501 Kortrijk, Belgium",Meensesteenweg 449,8501 Kortrijk,8501,Kortrijk,"Meensesteenweg, Bissegem, Kortrijk, West-Vlaanderen, Vlaanderen, 8501, België / Belgique / Belgien"
Arinti,https://arinti.ai/,Flanders,"Duigemhofstraat 101, 3020 Herent, Belgium",Duigemhofstraat 101,3020 Herent,3020,Herent,"Duigemhofstraat, Herent, Leuven, Vlaams-Brabant, Vlaanderen, 3020, België / Belgique / Belgien"
Around Media,https://www.around.media/,Flanders,"Kortrijksesteenweg 1127/0002, 9051, 9000 Gent, Belgium",Kortrijksesteenweg 1127/0002,"9051, 9000 Gent","9051,",9000 Gent,"Kortrijksesteenweg, Gent, Oost-Vlaanderen, Vlaanderen, 9000, België / Belgique / Belgien"
B12 Consulting,https://www.b12-consulting.com/,Wallonia,"Boucle Odon Godart, 2, 1348, Ottignies-Louvain-la-Neuve, Belgium",Boucle Odon Godart,"2, 1348, Ottignies-Louvain-la-Neuve","2,","1348, Ottignies-Louvain-la-Neuve","Boucle Odon Godart, Biéreau, Louvain-la-Neuve, Ottignies-Louvain-la-Neuve, Nivelles, Brabant wallon, Wallonie, 1348, België / Belgique / Belgien"
Blendr.io,https://www.blendr.io/,Flanders,"Grauwpoort 1, 9000 Gent, Belgium",Grauwpoort 1,9000 Gent,9000,Gent,"iHub, 1, Grauwpoort, Sluizeken, Gent, Oost-Vlaanderen, Vlaanderen, 9000, België / Belgique / Belgien"
BOBUP,http://www.bobup.be,Brussels,"Rue de Ransbeek 230, 1120 Bruxelles, Belgium",Rue de Ransbeek 230,1120 Bruxelles,1120,Bruxelles,"230, Rue de Ransbeek - Ransbeekstraat, Neder-Over-Heembeek, Ville de Bruxelles - Stad Brussel, Brussel-Hoofdstad - Bruxelles-Capitale, Région de Bruxelles-Capitale - Brussels Hoofdstedelijk Gewest, 1120, België / Belgique / Belgien"
Boltzmann,http://www.boltzmann.be,Flanders,"Gaston Crommenlaan 12, 9031 Gent, Belgium",Gaston Crommenlaan 12,9031 Gent,9031,Gent,"12, Gaston Crommenlaan, Bellevue, Ledeberg, Gent, Oost-Vlaanderen, Vlaanderen, 9050, België / Belgique / Belgien"
Brainjar,http://www.brainjar.ai,Flanders,"Gaston Geenslaan 11, 3001 Leuven, Belgium",Gaston Geenslaan 11,3001 Leuven,3001,Leuven,"Health House, 11, Gaston Geenslaan, Wetenschapspark Arenberg, Heverlee, Leuven, Vlaams-Brabant, Vlaanderen, 3001, België / Belgique / Belgien"
Brainstorm Consulting,https://www.bstorm.be/,Wallonia,"Rue du Bosquet 7, 1348 Ottignies-Louvain-la-Neuve, Belgium",Rue du Bosquet 7,1348 Ottignies-Louvain-la-Neuve,1348,Ottignies-Louvain-la-Neuve,"7, Rue du Bosquet, Parc Einstein, Louvain-la-Neuve, Ottignies-Louvain-la-Neuve, Nivelles, Brabant wallon, Wallonie, België / Belgique / Belgien"
Calculus,https://www.calculus.group/?lang=fr,Flanders,"Kempenseweg 12, 3690 Zutendaal, Belgium",Kempenseweg 12,3690 Zutendaal,3690,Zutendaal,"12, Kempenseweg, Papendaal, Zutendaal, Hasselt, Limburg, Vlaanderen, 3690, België / Belgique / Belgien"
Chiveo,http://www.chiveo.be/,Wallonia,"Rue St Exupéry 17, 4460 Grâce-Hollogne, Belgium",Rue St Exupéry 17,4460 Grâce-Hollogne,4460,Grâce-Hollogne,"B17, 17, Rue Saint Exupery, Grâce-Hollogne, Liège, Wallonie, 4460, België / Belgique / Belgien"
Comexis Partners,https://comexis.net/,Wallonia,"Atealaan 34A, 2200 Herentals Belgium, Belgium",Atealaan 34A,2200 Herentals Belgium,2200,Herentals Belgium,"Actemium, 34A, Atealaan, Klein Gent, Herentals, Turnhout, Antwerpen, Vlaanderen, 2200, België / Belgique / Belgien"
CooperLink,http://www.cooperlink.io,Wallonia,"Rue du Bois Saint-Jean 15/1, 4102 Seraing, Belgium",Rue du Bois Saint-Jean 15/1,4102 Seraing,4102,Seraing,"AARDEX Group, 15/1, Rue du Bois Saint-Jean, Liège Science-Park, Seraing, Liège, Wallonie, 4102, België / Belgique / Belgien"
Creax,https://creax.com/,Flanders,"Walle 113G, 8500 Kortrijk, Belgium",Walle 113G,8500 Kortrijk,8500,Kortrijk,"Walle, Kortrijk, West-Vlaanderen, Vlaanderen, 8500, België / Belgique / Belgien"
CrossLang,http://www.crosslang.com/en,Flanders,"Kerkstraat 106, 9050 Gent, Belgium",Kerkstraat 106,9050 Gent,9050,Gent,"106, Kerkstraat, Sas- en Bassijnwijk, Gentbrugge, Gent, Oost-Vlaanderen, Vlaanderen, 9050, België / Belgique / Belgien"
D-Sight,http://www.d-sight.com/,Brussels,"Witte Patersstraat 4, 1040 Etterbeek, Belgium",Witte Patersstraat 4,1040 Etterbeek,1040,Etterbeek,"Shayp, 4, Rue des Pères Blancs - Witte Patersstraat, Etterbeek, Brussel-Hoofdstad - Bruxelles-Capitale, Région de Bruxelles-Capitale - Brussels Hoofdstedelijk Gewest, 1040, België / Belgique / Belgien"
DART Consulting,http://dartconsult.com/fr/,Brussels,"13 rue du Congrès, 1000 Bruxelles, Belgium",13 rue du Congrès,1000 Bruxelles,1000,Bruxelles,"13, Rue du Congrès - Congresstraat, Quartier des Libertés - Vrijheidswijk, Pentagone - Vijfhoek, Bruxelles - Brussel, Ville de Bruxelles - Stad Brussel, Brussel-Hoofdstad - Bruxelles-Capitale, Région de Bruxelles-Capitale - Brussels Hoofdstedelijk Gewest, 1000, België / Belgique / Belgien"
Data Factory,https://www.datafactory.be/,Brussels,"Sinter-Goedeleplein 5, 1000 Brussel, Belgium",Sinter-Goedeleplein 5,1000 Brussel,1000,Brussel,"Place Sainte-Gudule - Sinter-Goedeleplein, Quartier de la Cathédrale, Pentagone - Vijfhoek, Bruxelles - Brussel, Ville de Bruxelles - Stad Brussel, Brussel-Hoofdstad - Bruxelles-Capitale, Région de Bruxelles-Capitale - Brussels Hoofdstedelijk Gewest, 1000, België / Belgique / Belgien"
Data Minded,http://www.dataminded.be,Flanders,"Vismarkt 17, 3000 Leuven, Belgium",Vismarkt 17,3000 Leuven,3000,Leuven,"Linx, 17, Vismarkt, Sint-Maartensdal, Leuven, Vlaams-Brabant, Vlaanderen, 3000, België / Belgique / Belgien"
Dataa,http://www.dataa.com,Brussels,"Rue Dieudonné Lefèvre 17, 1020 Bruxelles, Belgium",Rue Dieudonné Lefèvre 17,1020 Bruxelles,1020,Bruxelles,"17, Rue Dieudonné Lefèvre - Dieudonné Lefèvrestraat, Laeken - Laken, Ville de Bruxelles - Stad Brussel, Brussel-Hoofdstad - Bruxelles-Capitale, Région de Bruxelles-Capitale - Brussels Hoofdstedelijk Gewest, 1020, België / Belgique / Belgien"
Dataroots,http://dataroots.io,Flanders,"Tiensevest 132, 3000 Leuven, Belgium",Tiensevest 132,3000 Leuven,3000,Leuven,"Ethias, 132, Tiensevest, Sint-Maartensdal, Leuven, Vlaams-Brabant, Vlaanderen, 3000, België / Belgique / Belgien"
Datastories,http://datastories.com,Flanders,"Antoine Coppenslaan 27/bus 11, 2300 Turnhout, Belgium",Antoine Coppenslaan 27/bus 11,2300 Turnhout,2300,Turnhout,
Decis,https://www.decis.be/fr/,Wallonia,"Avenue Georges Marchal 18, 1330 Rixensart, Belgium",Avenue Georges Marchal 18,1330 Rixensart,1330,Rixensart,"18, Avenue Georges Marchal, Fond du Patch, Rixensart, Nivelles, Brabant wallon, Wallonie, 1330, België / Belgique / Belgien"
Deeper Analytics,http://deeperanalytics.be,Wallonia,"7 rue du Pré Saint-Germain, 5310 Eghezée, Belgium, Belgium",7 rue du Pré Saint-Germain,"5310 Eghezée, Belgium",5310,"Eghezée, Belgium","7, Rue du Pré Saint-Germain, Saint-Germain, Éghezée, Namur, Wallonie, 5310, België / Belgique / Belgien"
DeltaTec,https://www.deltatec.be/,Wallonia,"Rue Gilles Magnée 92/6, 4430 Ans, Belgium",Rue Gilles Magnée 92/6,4430 Ans,4430,Ans,"Rue Gilles Magnée, Ans, Liège, Wallonie, 4430, België / Belgique / Belgien"
Dfakto,http://www.dfakto.com,Brussels,"Louis Schmidtlaan 29, 1040 Etterbeek, Belgium",Louis Schmidtlaan 29,1040 Etterbeek,1040,Etterbeek,"Actiris Etterbeek, 29, Boulevard Louis Schmidt - Louis Schmidtlaan, Etterbeek, Brussel-Hoofdstad - Bruxelles-Capitale, Région de Bruxelles-Capitale - Brussels Hoofdstedelijk Gewest, 1040, België / Belgique / Belgien"
Engiforce,http://www.engiforce.com/,Wallonia,"All. Arthur Masson, 1400 Nivelles, Belgium",All. Arthur Masson,1400 Nivelles,1400,Nivelles,"Allée Arthur Masson, Mont Saint-Roch, Nivelles, Brabant wallon, Wallonie, 1400, België / Belgique / Belgien"
EuraNova,http://euranova.eu,Wallonia,"Rue Emile Francqui 4, 1435 Mont-Saint-Guibert, Belgium",Rue Emile Francqui 4,1435 Mont-Saint-Guibert,1435,Mont-Saint-Guibert,"4, Rue Émile Francqui, Parc Einstein, Corbais, Mont-Saint-Guibert, Nivelles, Brabant wallon, Wallonie, 1435, België / Belgique / Belgien"
Faktion,https://www.faktion.com/,Flanders,"Oudeleeuwenrui 39, 2000 Antwerpen, Belgium",Oudeleeuwenrui 39,2000 Antwerpen,2000,Antwerpen,"37-39, Oudeleeuwenrui, Schipperskwartier, Antwerpen, Vlaanderen, 2000, België / Belgique / Belgien"
Fit-For-Purpose Tech.,http://www.fitforpurpose.tech/,Brussels,"Victor Oudartstraat 7, 1030 Schaarbeek, Belgium",Victor Oudartstraat 7,1030 Schaarbeek,1030,Schaarbeek,"7, Rue Victor Oudart - Victor Oudartstraat, Meiser, Plasky, Schaerbeek - Schaarbeek, Brussel-Hoofdstad - Bruxelles-Capitale, Région de Bruxelles-Capitale - Brussels Hoofdstedelijk Gewest, 1030, België / Belgique / Belgien"
Fourcast,https://gcloud.devoteam.com/,Brussels,"26 Rue du Général Mouton-Duvernet, 69003 Lyon, Frankrijk, Belgium",26 Rue du Général Mouton-Duvernet,"69003 Lyon, Frankrijk",69003,"Lyon, Frankrijk","Pôle Emploi, 26, Rue du Général Mouton-Duvernet, La Buire, Lyon 3e Arrondissement, Lyon, Métropole de Lyon, Circonscription départementale du Rhône, Auvergne-Rhône-Alpes, France métropolitaine, 69003, France"
Freemind,http://www.freemind-group.com,Brussels,"Buro Design Center, Esplanade 1, 1020 Laeken, Belgium",Buro Design Center,"Esplanade 1, 1020 Laeken",Esplanade,"1, 1020 Laeken","Buro & Design Center, 1, Esplanade, Laeken - Laken, Ville de Bruxelles - Stad Brussel, Brussel-Hoofdstad - Bruxelles-Capitale, Région de Bruxelles-Capitale - Brussels Hoofdstedelijk Gewest, 1020, België / Belgique / Belgien"
GMind analytics,http://www.gmind.net,Wallonia,"Rue du Millénaire 2, 4840 Welkenraedt, Belgium",Rue du Millénaire 2,4840 Welkenraedt,4840,Welkenraedt,"2, Rue du Millénaire, Welkenraedt, Verviers, Liège, Wallonie, 4840, België / Belgique / Belgien"
Humain.AI,http://humain.ai,Flanders,"Gaston Crommelaan 8, 9050 Gent, Belgium, Belgium",Gaston Crommelaan 8,"9050 Gent, Belgium",9050,"Gent, Belgium",
I-Pulses,https://www.i-pulses.be/,Wallonia,"Esplanade de Cuyper Beniest 5, 4671 Blégny, Belgium",Esplanade de Cuyper Beniest 5,4671 Blégny,4671,Blégny,"Esplanade de Cuyper-Beniest, Ancienne Caserne de Saive, Cahorday, Blegny, Liège, Wallonie, 4671, België / Belgique / Belgien"
In The Pocket,http://inthepocket.com,Flanders,"Sassevaartstraat 46/401, 9000 Gent, Belgium",Sassevaartstraat 46/401,9000 Gent,9000,Gent,"In The Pocket, 46, Sassevaartstraat, Tolhuis, Gent, Oost-Vlaanderen, Vlaanderen, 9000, België / Belgique / Belgien"
Ingestic,https://www.ingestic.be/,Wallonia,"Rue du Manège 18b, 1301 Wavre, Belgium",Rue du Manège 18b,1301 Wavre,1301,Wavre,"Rue du Manège, Bierges, Wavre, Nivelles, Brabant wallon, Wallonie, 1301, België / Belgique / Belgien"
Invenira,http://www.invenira.com,Flanders,"Professor Roger Van Overstraetenplein 5, 3000 Leuven, Belgium",Professor Roger Van Overstraetenplein 5,3000 Leuven,3000,Leuven,"5, Professor Roger Van Overstraetenplein, Leuven, Vlaams-Brabant, Vlaanderen, 3000, België / Belgique / Belgien"
Ixor,https://ixor.be/,Flanders,"Schuttersvest 75, 2800 Mechelen, Belgium",Schuttersvest 75,2800 Mechelen,2800,Mechelen,"75, Schuttersvest, Mechelen, Antwerpen, Vlaanderen, 2800, België / Belgique / Belgien"
Kantify,http://kantify.com,Brussels,"Louizalaan 54, 1050 Brussel, Belgium",Louizalaan 54,1050 Brussel,1050,Brussel,"Neibo, 54, Avenue Louise - Louizalaan, Bruxelles - Brussel, Ville de Bruxelles - Stad Brussel, Brussel-Hoofdstad - Bruxelles-Capitale, Région de Bruxelles-Capitale - Brussels Hoofdstedelijk Gewest, 1050, België / Belgique / Belgien"
Klarrio,https://klarrio.com/,Flanders,"Plantin en Moretuslei 1A, 2018 Antwerpen, Belgium",Plantin en Moretuslei 1A,2018 Antwerpen,2018,Antwerpen,"1A, Plantin en Moretuslei, Klein-Antwerpen, Antwerpen, Vlaanderen, 2018, België / Belgique / Belgien"
Lantana,http://www.lantana.be,Brussels,"Boulevard d'Anvers / Antwerpselaan 40​,1000 Brussels, Belgium",Boulevard d'Anvers / Antwerpselaan 40​,1000 Brussels,1000,Brussels,"DigitYser, 40, Boulevard d'Anvers - Antwerpselaan, Quartier des Quais - Kaaienwijk, Pentagone - Vijfhoek, Bruxelles - Brussel, Ville de Bruxelles - Stad Brussel, Brussel-Hoofdstad - Bruxelles-Capitale, Région de Bruxelles-Capitale - Brussels Hoofdstedelijk Gewest, 1000, België / Belgique / Belgien"
ML6,http://ml6.eu,Flanders,"Esplanade Oscar Van De Voorde 1, 9000 Gent, Belgium",Esplanade Oscar Van De Voorde 1,9000 Gent,9000,Gent,"1, Esplanade Oscar Van de Voorde, Rijsenbergwijk, Gent, Oost-Vlaanderen, Vlaanderen, 9000, België / Belgique / Belgien"
Mobius Design Thinking,https://www.mobius.eu/en/,Flanders,"Kortrijksesteenweg 152, 9830 Sint-Martens-Latem, Belgium",Kortrijksesteenweg 152,9830 Sint-Martens-Latem,9830,Sint-Martens-Latem,"152, Kortrijksesteenweg, Hooglatem, Sint-Martens-Latem, Gent, Oost-Vlaanderen, Vlaanderen, 9830, België / Belgique / Belgien"
N-side,http://www.n-side.com,Flanders,"Av. Baudouin 1er 25, 1348 Ottignies-Louvain-la-Neuve, Belgium",Av. Baudouin 1er 25,1348 Ottignies-Louvain-la-Neuve,1348,Ottignies-Louvain-la-Neuve,
Odase,http://www.odaseontologies.com,Brussels,"Kazernestraat 45, 1000 Brussel, Belgium",Kazernestraat 45,1000 Brussel,1000,Brussel,"45, Rue de la Caserne - Kazernestraat, Quartier Midi-Lemonnier - Zuid-Lemonnierwijk, Pentagone - Vijfhoek, Bruxelles - Brussel, Ville de Bruxelles - Stad Brussel, Brussel-Hoofdstad - Bruxelles-Capitale, Région de Bruxelles-Capitale - Brussels Hoofdstedelijk Gewest, 1000, België / Belgique / Belgien"
Omina Tech.,http://www.omina.be,Flanders,"Mechelsesteenweg 19, 2018 Antwerpen, Belgium",Mechelsesteenweg 19,2018 Antwerpen,2018,Antwerpen,"Extensionelle, 19-21, Mechelsesteenweg, Theaterbuurt, Antwerpen, Vlaanderen, 2018, België / Belgique / Belgien"
Onebonsai,https://onebonsai.com/fr/,Flanders,"Luchthavenlaan 4, 1800 Vilvoorde, Belgium",Luchthavenlaan 4,1800 Vilvoorde,1800,Vilvoorde,"Politierechtbank Vilvoorde, 4, Luchthavenlaan, Mima, Vilvoorde, Halle-Vilvoorde, Vlaams-Brabant, Vlaanderen, 1800, België / Belgique / Belgien"
Optimal Computing,https://www.optimalcomputing.be/index.php?company=company,Wallonia,"Rue de la Vignette 36, 7034 Mons, Belgium",Rue de la Vignette 36,7034 Mons,7034,Mons,"Rue de la Vignette, Saint-Denis, Mons, Hainaut, Wallonie, 7034, België / Belgique / Belgien"
Optimal Design,https://optimaldesign.com/OD/company.html,Brussels,"20 rue de l'Industrie B, 1400 Nivelles, Belgium",20 rue de l'Industrie B,1400 Nivelles,1400,Nivelles,
P4A,https://performanceforassets.com/,Wallonia,"Rue des Gerboises 1, 5100 Namur, Belgium",Rue des Gerboises 1,5100 Namur,5100,Namur,"Rue des Gerboises, Naninne, Namur, Wallonie, 5100, België / Belgique / Belgien"
Pegus Digital,https://pegus.digital/,Flanders,"Noordlaan 18, 8520 Kuurne, Belgium",Noordlaan 18,8520 Kuurne,8520,Kuurne,"Noordlaan, Sint-Pieter, Kuurne, Kortrijk, West-Vlaanderen, Vlaanderen, 8520, België / Belgique / Belgien"
Proxyclick,https://www.proxyclick.com/fr/?ads_cmpid=10183243095&ads_adid=100705580294&ads_matchtype=e&ads_network=g&ads_creative=438584373765&utm_term=proxyclick&ads_targetid=kwd-333521833842&utm_campaign=&utm_source=adwords&utm_medium=ppc&ttv=2&gclid=Cj0KCQiAoab_BRCxARIsANMx4S4eNWy3CB0MJQS_f507NsZWoBKEntVo3N3ow4gD_75rlWTZ5BN3a5QaAgU_EALw_wcB,Brussels,"Sint-Huibrechtsstraat 17, 1150 Brussel, Belgium",Sint-Huibrechtsstraat 17,1150 Brussel,1150,Brussel,"17, Rue Saint-Hubert - Sint-Huibrechtsstraat, Woluwe-Saint-Pierre - Sint-Pieters-Woluwe, Brussel-Hoofdstad - Bruxelles-Capitale, Région de Bruxelles-Capitale - Brussels Hoofdstedelijk Gewest, 1150, België / Belgique / Belgien"
Radix.ai,http://www.radix.ai,Brussels,"Kantersteen 10, 1000 Brussel, Belgium",Kantersteen 10,1000 Brussel,1000,Brussel,"Le Wagon, 10, Cantersteen - Kantersteen, Quartier Royal - Koninklijke Wijk, Pentagone - Vijfhoek, Bruxelles - Brussel, Ville de Bruxelles - Stad Brussel, Brussel-Hoofdstad - Bruxelles-Capitale, Région de Bruxelles-Capitale - Brussels Hoofdstedelijk Gewest, 1000, België / Belgique / Belgien"
Reimagine,http://www.reimagine.be,Wallonia,"Witte Patersstraat 4, 1040 Etterbeek, Belgium",Witte Patersstraat 4,1040 Etterbeek,1040,Etterbeek,"Shayp, 4, Rue des Pères Blancs - Witte Patersstraat, Etterbeek, Brussel-Hoofdstad - Bruxelles-Capitale, Région de Bruxelles-Capitale - Brussels Hoofdstedelijk Gewest, 1040, België / Belgique / Belgien"
Room40,http://roomfourzero.com,Flanders,"Quai sur Meuse 19, 4000 Liège, Belgium",Quai sur Meuse 19,4000 Liège,4000,Liège,"Quai sur Meuse, Féronstrée, Liège, Wallonie, 4000, België / Belgique / Belgien"
Sagacify,http://www.sagacify.com,Brussels,"De Broquevillelaan 12, 1150 Brussels, Belgium",De Broquevillelaan 12,1150 Brussels,1150,Brussels,"12, Avenue de Broqueville - de Broquevillelaan, Woluwe-Saint-Pierre - Sint-Pieters-Woluwe, Brussel-Hoofdstad - Bruxelles-Capitale, Région de Bruxelles-Capitale - Brussels Hoofdstedelijk Gewest, 1150, België / Belgique / Belgien"
Savaco,http://www.savaco.com/,Flanders,"Beneluxpark 19, 8500 Kortrijk, Belgium",Beneluxpark 19,8500 Kortrijk,8500,Kortrijk,"19, Beneluxpark, Kortrijk, West-Vlaanderen, Vlaanderen, 8500, België / Belgique / Belgien"
Seen apps,http://www.seen-apps.com,Wallonia,"Rue Marcel de Brogniez 27/1, 4690 Bassenge, Belgium",Rue Marcel de Brogniez 27/1,4690 Bassenge,4690,Bassenge,"Rue Marcel de Brogniez, Bassenge, Liège, Wallonie, 4690, België / Belgique / Belgien"
Sentiance,https://www.sentiance.com,Flanders,"Korte Lozanastraat 20, 2018 Antwerpen, Belgium",Korte Lozanastraat 20,2018 Antwerpen,2018,Antwerpen,"Sentiance HQ, 20-26, Korte Lozanastraat, Markgrave, Antwerpen, Vlaanderen, 2018, België / Belgique / Belgien"
Skalup,http://www.skalup.com,Wallonia,"Av. Reine Astrid 16, 5000 Namur, Belgium",Av. Reine Astrid 16,5000 Namur,5000,Namur,"16, Avenue Reine Astrid, Salzinnes, Namur, Wallonie, 5000, België / Belgique / Belgien"
Sparkle,https://www.sparkle.tech/,Wallonia,"Rue de la Terre du Prince 17, 7000 Mons, Belgium",Rue de la Terre du Prince 17,7000 Mons,7000,Mons,"Indemnis, 17, Rue de la Terre du Prince, Quartier Rachot, Mons, Hainaut, Wallonie, 7000, België / Belgique / Belgien"
Tapptic,http://www.tapptic.com,Brussels,"Terkamerenlaan 28/30, 1000 Brussel, Belgium",Terkamerenlaan 28/30,1000 Brussel,1000,Brussel,"28/30, Boulevard de la Cambre - Terkamerenlaan, La Cambre - Ter Kameren, Bruxelles - Brussel, Ville de Bruxelles - Stad Brussel, Brussel-Hoofdstad - Bruxelles-Capitale, Région de Bruxelles-Capitale - Brussels Hoofdstedelijk Gewest, 1000, België / Belgique / Belgien"
TDSGN,https://www.tdsgn.be/,Wallonia,"Ninoofsesteenweg 211, 1760 Roosdaal, Belgium",Ninoofsesteenweg 211,1760 Roosdaal,1760,Roosdaal,"209;211, Ninoofsesteenweg, Strijtem, Roosdaal, Halle-Vilvoorde, Vlaams-Brabant, Vlaanderen, 1760, België / Belgique / Belgien"
Tengu,https://www.tengu.io/,Flanders,"Dendermondsesteenweg 50, 9000 Gent, Belgium",Dendermondsesteenweg 50,9000 Gent,9000,Gent,"Trage Wegen vzw, 50, Dendermondsesteenweg, Dampoortwijk, Gent, Oost-Vlaanderen, Vlaanderen, 9000, België / Belgique / Belgien"
Thelis,http://www.thelis.be,Wallonia,"Rue des Salamandres 2, 5100 Namur, Belgium",Rue des Salamandres 2,5100 Namur,5100,Namur,"Rue des Salamandres, Naninne, Namur, Wallonie, 5100, België / Belgique / Belgien"
Trendskout,http://www.trendskout.com,Flanders,"Ottergemsesteenweg Zuid 808, 9000 Gent, Belgium",Ottergemsesteenweg Zuid 808,9000 Gent,9000,Gent,"Ghelamco Arena, 808, Ottergemsesteenweg-Zuid, Gent, Oost-Vlaanderen, Vlaanderen, 9000, België / Belgique / Belgien"
Tropos,http://www.tropos.io,Flanders,"Mechelsesteenweg 271, 2018 Antwerpen, Belgium",Mechelsesteenweg 271,2018 Antwerpen,2018,Antwerpen,"Lidl, 271-273, Mechelsesteenweg, Harmonie, Antwerpen, Vlaanderen, 2018, België / Belgique / Belgien"
Underside,http://www.underside.be,Wallonia,"Av. Georges Lemaître 5, 6041 Charleroi, Belgium",Av. Georges Lemaître 5,6041 Charleroi,6041,Charleroi,"Avenue Georges Lemaître, Aéropole, Gosselies, Charleroi, Hainaut, Wallonie, 6041, België / Belgique / Belgien"
VECTR Consulting,https://Vectr.Consulting,Flanders,"De Villermontlaan 9, 2550 Kontich, Belgium",De Villermontlaan 9,2550 Kontich,2550,Kontich,
VERHAERT,https://www.verhaert.com,Wallonia,"Hogenakkerhoekstraat 21, 9150 Kruibeke, Belgium",Hogenakkerhoekstraat 21,9150 Kruibeke,9150,Kruibeke,"Hogenakkerhoekstraat, Kruibeke, Sint-Niklaas, Oost-Vlaanderen, Vlaanderen, 9150, België / Belgique / Belgien"
VersaSense,http://www.versasense.com,Flanders,"Kapeldreef 60, 3001 Leuven, Belgium",Kapeldreef 60,3001 Leuven,3001,Leuven,"Innovatie- en Incubatiecentrum, 60, Kapeldreef, Heverlee, Leuven, Vlaams-Brabant, Vlaanderen, 3001, België / Belgique / Belgien"
Waylay,http://www.waylay.io,Flanders,"Blekersdijk 33a, 9000 Gent, Belgium",Blekersdijk 33a,9000 Gent,9000,Gent,"Blekersdijk, Ham, Gent, Oost-Vlaanderen, Vlaanderen, 9000, België / Belgique / Belgien"
WEPOC,https://wepoc.be/,Wallonia,"Rue du Traité de Rome 6, 1348 Ottignies-Louvain-la-Neuve, Belgium",Rue du Traité de Rome 6,1348 Ottignies-Louvain-la-Neuve,1348,Ottignies-Louvain-la-Neuve,"Rue du Traité de Rome, Bruyères, Louvain-la-Neuve, Ottignies-Louvain-la-Neuve, Nivelles, Brabant wallon, Wallonie, 1348, België / Belgique / Belgien"
XC Lab,http://xclab.com/,Wallonia,"Quai Louva, 21, 4102 Seraing, Belgium, Belgium",Quai Louva,"21, 4102 Seraing, Belgium","21,","4102 Seraing, Belgium","21, Quai Louva, Seraing, Liège, Wallonie, 4102, België / Belgique / Belgien"
6Wolves,http://www.6wolves.ai,Brussels,"Moerstraat 40, 8000 Brugge, Belgium",Moerstraat 40,8000 Brugge,8000,Brugge,"40, Moerstraat, Steenstraatkwartier, Brugge-Centrum, Brugge, West-Vlaanderen, Vlaanderen, 8000, België / Belgique / Belgien"
Artiq,http://www.artiq.eu,Flanders,"Professor Roger Van Overstraetenplein 5, 3000 Leuven, Belgium",Professor Roger Van Overstraetenplein 5,3000 Leuven,3000,Leuven,"5, Professor Roger Van Overstraetenplein, Leuven, Vlaams-Brabant, Vlaanderen, 3000, België / Belgique / Belgien"
Aspect Analytics,http://www.aspect-analytics.com,Flanders,"C-Mine 12, 3600 Genk, Belgium",C-Mine 12,3600 Genk,3600,Genk,"C-Mine Crib, 12, C-mine, Genk, Hasselt, Limburg, Vlaanderen, 3600, België / Belgique / Belgien"
Asylia Diagnostics,https://www.asyliadx.com/,Flanders,"Turnhoutseweg 30, 2340 Beerse, Belgium",Turnhoutseweg 30,2340 Beerse,2340,Beerse,"A560, 30, Turnhoutseweg, Beerse, Turnhout, Antwerpen, Vlaanderen, 2340, België / Belgique / Belgien"
Aurelis,https://aurelis.org/,Flanders,"Oude Godstraat 200, 2650 Edegem, Belgium",Oude Godstraat 200,2650 Edegem,2650,Edegem,"200, Oude Godstraat - Oude-Godstraat, Edegem, Antwerpen, Vlaanderen, 2650, België / Belgique / Belgien"
Avalasia,http://www.avalasia.com,Flanders,"Bruggestraat 112, 8930 Menen, Belgium",Bruggestraat 112,8930 Menen,8930,Menen,"112, Bruggestraat, Menen, Kortrijk, West-Vlaanderen, Vlaanderen, 8930, België / Belgique / Belgien"
Axiles Bionics,http://www.axilesbionics.com,Brussels,"Raketstraat 64, 1130 Brussel, Belgium",Raketstraat 64,1130 Brussel,1130,Brussel,"64, Rue de la Fusée - Raketstraat, Haren, Ville de Bruxelles - Stad Brussel, Brussel-Hoofdstad - Bruxelles-Capitale, Région de Bruxelles-Capitale - Brussels Hoofdstedelijk Gewest, 1130, België / Belgique / Belgien"
Axinesis,http://www.axinesis.com,Wallonia,"Av. Sabin 3, 1300 Wavre, Belgium",Av. Sabin 3,1300 Wavre,1300,Wavre,"Axinexis, 3, Avenue Sabin, Wavre, Nivelles, Brabant wallon, Wallonie, 1300, België / Belgique / Belgien"
Bartanel,http://bartanel.com,Flanders,"Turnhoutsebaan 139, 2140 Antwerpen, Belgium",Turnhoutsebaan 139,2140 Antwerpen,2140,Antwerpen,"Eco-café, 139,139A, Turnhoutsebaan, Borgerhout Intra Muros, Borgerhout, Antwerpen, Vlaanderen, 2140, België / Belgique / Belgien"
Bingli,http://www.mybingli.com,Flanders,"Lange Gasthuisstraat 29/12, 2000 Antwerpen, Belgium",Lange Gasthuisstraat 29/12,2000 Antwerpen,2000,Antwerpen,"Lange Gasthuisstraat, Wilde Zee, Antwerpen, Vlaanderen, 2000, België / Belgique / Belgien"
BioClue,http://www.bioclue.eu,Flanders,"Fabriekstraat 7, 3930 Hamont, Belgium",Fabriekstraat 7,3930 Hamont,3930,Hamont,
BioLizard,https://lizard.bio/,Flanders,"Martelaarslaan 408, 9000 Ghent, Belgium",Martelaarslaan 408,9000 Ghent,9000,Ghent,"408, Martelaarslaan, Papegaai, Gent, Oost-Vlaanderen, Vlaanderen, 9000, België / Belgique / Belgien"
BioStrand,https://www.biostrand.be/,Flanders,"Agoralaan Abis, 3590 Diepenbeek, Belgium",Agoralaan Abis,3590 Diepenbeek,3590,Diepenbeek,
BT Clinical Computing,http://www.btclinicalcomputing.com,Wallonia,"Avenue Paul Pastur 361 bte 6, 6032 Charleroi, Belgium",Avenue Paul Pastur 361 bte 6,6032 Charleroi,6032,Charleroi,
CluePoints,http://cluepoints.com,Wallonia,"New Tech Center, Av. Albert Einstein 2a, 1348 Ottignies-Louvain-la-Neuve, Belgium",New Tech Center,"Av. Albert Einstein 2a, 1348 Ottignies-Louvain-la-Neuve",Av.,"Albert Einstein 2a, 1348 Ottignies-Louvain-la-Neuve",
Creative Therapy,https://www.mycreativetherapy.com/#pll_switcher,Flanders,"Derbystraat, 9051 Gent, Belgium",Derbystraat,9051 Gent,9051,Gent,"Derbystraat, Maalte, Sint-Denijs-Westrem, Gent, Oost-Vlaanderen, Vlaanderen, 9051, België / Belgique / Belgien"
DEO,https://deo.care/,Flanders,"Da Vincilaan 1, 1930 Zaventem, Belgium",Da Vincilaan 1,1930 Zaventem,1930,Zaventem,
Digital Orthopaedics,http://www.digital-orthopaedics.com,Wallonia,"Rue Emile Francqui 1, 1435 Mont-Saint-Guibert, Belgium",Rue Emile Francqui 1,1435 Mont-Saint-Guibert,1435,Mont-Saint-Guibert,"Emisys (SPRL), 1, Rue Émile Francqui, Parc Einstein, Corbais, Mont-Saint-Guibert, Nivelles, Brabant wallon, Wallonie, 1435, België / Belgique / Belgien"
DNAlytics,http://dnalytics.com,Wallonia,"Centre Monnet Av. Jean Monnet, 1348 Ottignies-Louvain-la-Neuve, Belgium",Centre Monnet Av. Jean Monnet,1348 Ottignies-Louvain-la-Neuve,1348,Ottignies-Louvain-la-Neuve,
EarlyTracks,https://www.earlytracks.com/,Brussels,"Sint-Pieterssteenweg 260, 1040 Bruxelles, Belgium",Sint-Pieterssteenweg 260,1040 Bruxelles,1040,Bruxelles,"260, Chaussée Saint-Pierre - Sint-Pieterssteenweg, Etterbeek, Brussel-Hoofdstad - Bruxelles-Capitale, Région de Bruxelles-Capitale - Brussels Hoofdstedelijk Gewest, 1040, België / Belgique / Belgien"
Ectosense,https://www.ectosense.com/,Flanders,"De Hoorn Sluisstraat 79/00.01, Sluisstraat, 3000 Leuven, Belgium",De Hoorn Sluisstraat 79/00.01,"Sluisstraat, 3000 Leuven","Sluisstraat,",3000 Leuven,
emma.health,http://emma.health,Flanders,"Ottergemsesteenweg Zuid 808C/bus 12, 9000 Gent, Belgium",Ottergemsesteenweg Zuid 808C/bus 12,9000 Gent,9000,Gent,
Enpy,http://www.enpy.com,Brussels,"Louizalaan 65/11, 1050 Elsene, Belgium",Louizalaan 65/11,1050 Elsene,1050,Elsene,
Epcon,http://www.epcon.ai,Flanders,"Sint-Pietersvliet 7, 2000 Antwerpen, Belgium",Sint-Pietersvliet 7,2000 Antwerpen,2000,Antwerpen,"SyncTrace buitendienstoptimalisatie, 7, Sint-Pietersvliet, Schipperskwartier, Antwerpen, Vlaanderen, 2000, België / Belgique / Belgien"
Epihunter,https://www.epihunter.com/,Flanders,"Corda Campus Kempische Steenweg 303/200, 3500 Hasselt, Belgium",Corda Campus Kempische Steenweg 303/200,3500 Hasselt,3500,Hasselt,
Epilog,http://www.epilog.care,Flanders,"Vlasgaardstraat 52, 9000 Gent, Belgium",Vlasgaardstraat 52,9000 Gent,9000,Gent,"Gig & Grow, 52, Vlasgaardstraat, Brugse Poort, Gent, Oost-Vlaanderen, Vlaanderen, 9000, België / Belgique / Belgien"
FluidDA,https://www.fluidda.com/,Flanders,"Groeningenlei 132, 2550 Kontich, Belgium",Groeningenlei 132,2550 Kontich,2550,Kontich,"132, Groeningenlei, Kontich, Antwerpen, Vlaanderen, 2550, België / Belgique / Belgien"
Gabi Smartcare,https://gabismartcare.com/,Wallonia,"Rue Emile Francqui 6 2nd Floor, 1435 Mont-Saint-Guibert, Belgium",Rue Emile Francqui 6 2nd Floor,1435 Mont-Saint-Guibert,1435,Mont-Saint-Guibert,
Genae,https://www.genae.com/,Flanders,"Justitiestraat 6, 2018 Antwerpen, Belgium",Justitiestraat 6,2018 Antwerpen,2018,Antwerpen,"6, Justitiestraat, Theaterbuurt, Antwerpen, Vlaanderen, 2018, België / Belgique / Belgien"
HeartKinetics,https://heartkinetics.com/fr/,Wallonia,"Drève Richelle 161/57/Building M, 1410 Waterloo, Belgium",Drève Richelle 161/57/Building M,1410 Waterloo,1410,Waterloo,
Hippocreates,http://www.hippocreates.be/,Flanders,"Ter Heidelaan 95A, 3200 Aarschot, Belgium",Ter Heidelaan 95A,3200 Aarschot,3200,Aarschot,"95A, Ter Heidelaan, Aarschot, Leuven, Vlaams-Brabant, Vlaanderen, 3200, België / Belgique / Belgien"
IBA,https://iba-worldwide.com/,Wallonia,"Chem. du Cyclotron 3, 1348 Ottignies-Louvain-la-Neuve, Belgium",Chem. du Cyclotron 3,1348 Ottignies-Louvain-la-Neuve,1348,Ottignies-Louvain-la-Neuve,
icoMetrix,http://www.icometrix.com,Flanders,"Kolonel Begaultlaan 1b, 3012 Leuven, Belgium",Kolonel Begaultlaan 1b,3012 Leuven,3012,Leuven,"Kolonel Begaultlaan, Wilsele, Leuven, Vlaams-Brabant, Vlaanderen, 3012, België / Belgique / Belgien"
Innovation Sprint,https://innovationsprint.eu/,Brussels,"Clos Chapelle-aux-Champs 30 bte 1.30.30, 1200 Brussels, Belgium",Clos Chapelle-aux-Champs 30 bte 1.30.30,1200 Brussels,1200,Brussels,
Lindacare,https://lindacare.com/,Flanders,"Grauwmeer 1/41, 3001 Leuven, Belgium",Grauwmeer 1/41,3001 Leuven,3001,Leuven,"Grauwmeer, Leuvens Haasrode, Leuven, Vlaams-Brabant, Vlaanderen, 3001, België / Belgique / Belgien"
Lopos,https://www.lopos.be/,Flanders,"Ottergemsesteenweg Zuid 808, 9000 Gent, Belgium",Ottergemsesteenweg Zuid 808,9000 Gent,9000,Gent,"Ghelamco Arena, 808, Ottergemsesteenweg-Zuid, Gent, Oost-Vlaanderen, Vlaanderen, 9000, België / Belgique / Belgien"
Lynxcare,http://lynxcare.be,Flanders,"Tiensevest 132, 3000 Leuven, Belgium",Tiensevest 132,3000 Leuven,3000,Leuven,"Ethias, 132, Tiensevest, Sint-Maartensdal, Leuven, Vlaams-Brabant, Vlaanderen, 3000, België / Belgique / Belgien"
Medical Robots,http://www.medical-robots.be,Flanders,"De Rondom 18, 5612 AP Eindhoven, Nederland, Belgium",De Rondom 18,"5612 AP Eindhoven, Nederland",5612,"AP Eindhoven, Nederland","18, De Rondom, Centrum, Eindhoven, Noord-Brabant, Nederland, 5612 AP, Nederland"
Minze health,https://minzehealth.com/,Flanders,"Offerandestraat 1, 2060 Antwerpen, Belgium",Offerandestraat 1,2060 Antwerpen,2060,Antwerpen,"1-3, Offerandestraat, Seefhoek, Antwerpen, Vlaanderen, 2060, België / Belgique / Belgien"
Molecubes,http://molecubes.com,Flanders,"Ottergemsesteenweg Zuid 808 bus 325, 9000 Gent, Belgium",Ottergemsesteenweg Zuid 808 bus 325,9000 Gent,9000,Gent,
Mona,https://mona.health/,Flanders,"Business Brewery N.V. Interleuvenlaan 62, 3001 Leuven, Belgium",Business Brewery N.V. Interleuvenlaan 62,3001 Leuven,3001,Leuven,
Mynutia,http://www.mynutia.com,Flanders,"Celestijnenlaan 300, 3001 Leuven, Belgium",Celestijnenlaan 300,3001 Leuven,3001,Leuven,"Interconfessional Prayer Room, 300, Celestijnenlaan, Heverlee, Leuven, Vlaams-Brabant, Vlaanderen, 3001, België / Belgique / Belgien"
Nischala Tech.,https://www.nischalatech.com/,Flanders,"Wilrijk, 2610 Antwerp, Belgium",Wilrijk,2610 Antwerp,2610,Antwerp,"Wilrijk, Antwerpen, Vlaanderen, 2610, België / Belgique / Belgien"
OncoDNA,http://www.oncoshare.com,Wallonia,"Rue Louis Breguet 1, 6041 Gosselies, Belgium",Rue Louis Breguet 1,6041 Gosselies,6041,Gosselies,"OncoDNA, 1, Rue Louis Breguet, Aéropole, Gosselies, Charleroi, Hainaut, Wallonie, 6041, België / Belgique / Belgien"
Oncoradiomics,http://www.oncoradiomics.com,Wallonia,"Clos Chanmurly 13, 4000 Liège, Belgium",Clos Chanmurly 13,4000 Liège,4000,Liège,"1Spatial, 13, Clos Chanmurly, Cointe, Liège, Wallonie, 4000, België / Belgique / Belgien"
Ontoforce,http://www.ontoforce.com,Flanders,"Moutstraat 108, 9000 Gent, Belgium",Moutstraat 108,9000 Gent,9000,Gent,"82;84;86;88;90;92;94;96;98;100;102;104;106;108;110;112;114;116;118;120;122;124;126;128;130;132;134;136;138;140;142, Moutstraat, Ottergemse Dries, Gent, Oost-Vlaanderen, Vlaanderen, 9000, België / Belgique / Belgien"
Ovizio,https://ovizio.com/,Brussels,"Kersbeeklaan 306, 1180 Ukkel, Belgium",Kersbeeklaan 306,1180 Ukkel,1180,Ukkel,"Avenue Kersbeek - Kersbeeklaan, Neerstalle, Uccle - Ukkel, Brussel-Hoofdstad - Bruxelles-Capitale, Région de Bruxelles-Capitale - Brussels Hoofdstedelijk Gewest, 1180, België / Belgique / Belgien"
Partheas,https://partheas.com/,Flanders,"Sint Jorisstraat 17A, 9300 Aalst, Belgium",Sint Jorisstraat 17A,9300 Aalst,9300,Aalst,"17;17A, Sint-Jorisstraat, Aalst, Oost-Vlaanderen, Vlaanderen, 9300, België / Belgique / Belgien"
Phasya,https://www.phasya.com/en,Wallonia,"Rue du Bois Saint-Jean 29, 4102 Seraing, Belgium",Rue du Bois Saint-Jean 29,4102 Seraing,4102,Seraing,"29, Rue du Bois Saint-Jean, Liège Science-Park, Seraing, Liège, Wallonie, 4102, België / Belgique / Belgien"
ProteoFormiX,https://www.proteoformix.com/,Flanders,"Janssen Pharmaceutica Campus Turnhoutseweg 30, 2340 Beerse, Belgium",Janssen Pharmaceutica Campus Turnhoutseweg 30,2340 Beerse,2340,Beerse,
Qaelum,https://qaelum.com/,Flanders,"Gaston Geenslaan 9, 3001 Leuven, Belgium",Gaston Geenslaan 9,3001 Leuven,3001,Leuven,"Gaston Geenslaan, Wetenschapspark Arenberg, Heverlee, Leuven, Vlaams-Brabant, Vlaanderen, 3001, België / Belgique / Belgien"
Qompium,https://www.fibricheck.com/,Flanders,"Corda Campus Kempische Steenweg 303/27, 3500 Hasselt, Belgium",Corda Campus Kempische Steenweg 303/27,3500 Hasselt,3500,Hasselt,
QuantaCorp,http://www.QuantaCorp.io,Flanders,"Amelia Earhartlaan 17, 9051 Gent, Belgium",Amelia Earhartlaan 17,9051 Gent,9051,Gent,"Planet Business Center, 17, Amelia Earhartlaan, Sint-Denijs-Westrem, Gent, Oost-Vlaanderen, Vlaanderen, 9051, België / Belgique / Belgien"
Relu,http://relu.eu,Flanders,"Kapeldreef 60, 3001 Leuven, Belgium",Kapeldreef 60,3001 Leuven,3001,Leuven,"Innovatie- en Incubatiecentrum, 60, Kapeldreef, Heverlee, Leuven, Vlaams-Brabant, Vlaanderen, 3001, België / Belgique / Belgien"
Rombit,http://rombit.com,Flanders,"Meir 30, 2000 Antwerpen, Belgium",Meir 30,2000 Antwerpen,2000,Antwerpen,"Primark, 28-30, Meir, Wilde Zee, Antwerpen, Vlaanderen, 2000, België / Belgique / Belgien"
Saana,https://saana.co/,Brussels,"Rue du Commerce 31, 1000 Bruxelles, Belgium",Rue du Commerce 31,1000 Bruxelles,1000,Bruxelles,"31, Rue du Commerce - Handelsstraat, Quartier européen - Europese Wijk, Bruxelles - Brussel, Ville de Bruxelles - Stad Brussel, Brussel-Hoofdstad - Bruxelles-Capitale, Région de Bruxelles-Capitale - Brussels Hoofdstedelijk Gewest, 1000, België / Belgique / Belgien"
salamander U,https://www.salamanderu.com/,Wallonia,"Science Park, Marche-en-Famenne Novalis Rue de la Science 8, 6900, Belgium",Science Park,"Marche-en-Famenne Novalis Rue de la Science 8, 6900",Marche-en-Famenne,"Novalis Rue de la Science 8, 6900",
Savics,http://www.savics.org,Brussels,"Gemeentelijk Godshuisstraat 6, 1170 Watermaal-Bosvoorde, Belgium",Gemeentelijk Godshuisstraat 6,1170 Watermaal-Bosvoorde,1170,Watermaal-Bosvoorde,
Simpl,http://www.logiciel-crm.be/,Wallonia,"48 rue des Martyrs, 4800 Verviers, Belgium",48 rue des Martyrs,4800 Verviers,4800,Verviers,"48, Rue des Martyrs, Verviers, Liège, Wallonie, 4800, België / Belgique / Belgien"
Sneezz,https://sneezz.be/,Flanders,"Kroonstraat 31, 3840 Limburg, Belgium",Kroonstraat 31,3840 Limburg,3840,Limburg,"Kroonstraat, Borgloon, Tongeren, Limburg, Vlaanderen, 3840, België / Belgique / Belgien"
Spectricity,http://spectricity.com,Flanders,"Stationsstraat 55, 2800 Mechelen, Belgium",Stationsstraat 55,2800 Mechelen,2800,Mechelen,"Bar Marie, 55, Stationsstraat, Mechelen, Antwerpen, Vlaanderen, 2800, België / Belgique / Belgien"
Spentys,http:// https://www.spentys.com/,Brussels,"Sint-Denijsstraat 120, 1190 Vorst, Belgium",Sint-Denijsstraat 120,1190 Vorst,1190,Vorst,"120, Rue Saint-Denis - Sint-Denijsstraat, Forest - Vorst, Brussel-Hoofdstad - Bruxelles-Capitale, Région de Bruxelles-Capitale - Brussels Hoofdstedelijk Gewest, 1190, België / Belgique / Belgien"
Strong Supplies,http://strong.supplies,Flanders,"Waalkens 11C, 9000 Gent, Belgium",Waalkens 11C,9000 Gent,9000,Gent,"Waalkens, Vijfhoek, Mariakerke, Gent, Oost-Vlaanderen, Vlaanderen, 9030, België / Belgique / Belgien"
Sunrise,http://www.sunrise-sleep.com,Wallonia,"Chau. de Marche 598/02, 5101 Namur, Belgium",Chau. de Marche 598/02,5101 Namur,5101,Namur,
TELEMIS,http://www.telemis.com,Wallonia,"Av. Athéna 2, 1348 Ottignies-Louvain-la-Neuve, Belgium",Av. Athéna 2,1348 Ottignies-Louvain-la-Neuve,1348,Ottignies-Louvain-la-Neuve,"Avenue Athéna, Parc Athena, Louvain-la-Neuve, Ottignies-Louvain-la-Neuve, Nivelles, Brabant wallon, Wallonie, 1348, België / Belgique / Belgien"
The Medical Cloud Company,http://www.medicalcloudcompany.com,Wallonia,"Clos Chanmurly 13, 4000 Liège, Belgium",Clos Chanmurly 13,4000 Liège,4000,Liège,"1Spatial, 13, Clos Chanmurly, Cointe, Liège, Wallonie, 4000, België / Belgique / Belgien"
Vitamin.ai,https://vitamin-ai.com,Flanders,"Frans De Cortlaan 3 bus 1, 2610 Antwerp, Belgium",Frans De Cortlaan 3 bus 1,2610 Antwerp,2610,Antwerp,"Frans De Cortlaan, Wilrijk, Antwerpen, Vlaanderen, 2610, België / Belgique / Belgien"
Xperthis,http://www.xperthis.be,Brussels,"Boulevard Bischoffsheim 15, 1000 Bruxelles, Belgium",Boulevard Bischoffsheim 15,1000 Bruxelles,1000,Bruxelles,"15, Boulevard Bischoffsheim - Bischoffsheimlaan, Bruxelles - Brussel, Ville de Bruxelles - Stad Brussel, Brussel-Hoofdstad - Bruxelles-Capitale, Région de Bruxelles-Capitale - Brussels Hoofdstedelijk Gewest, 1000, België / Belgique / Belgien"
Yoboo,https://www.yoboo.health/nl/home,Flanders,"Quellinstraat 12/6, 2800 Antwerpen, Belgium",Quellinstraat 12/6,2800 Antwerpen,2800,Antwerpen,"Quellinstraat, Statiekwartier, Antwerpen, Vlaanderen, 2018, België / Belgique / Belgien"
Alberts,http://alberts.be,Flanders,"Bijkhoevelaan 32c, 2110 Wijnegem, Belgium",Bijkhoevelaan 32c,2110 Wijnegem,2110,Wijnegem,"Toshiba, 32,32A,32B,32C, Bijkhoevelaan, Wijnegem Zone 1 - Den Hoek, Wijnegem, Antwerpen, Vlaanderen, 2110, België / Belgique / Belgien"
Amigrow,https://amigrowfarming.com/,Flanders,"Penrhyn-coch, Aberystwyth SY23 3EE, Verenigd Koninkrijk, Belgium",Penrhyn-coch,"Aberystwyth SY23 3EE, Verenigd Koninkrijk",Aberystwyth,"SY23 3EE, Verenigd Koninkrijk",
Ampacimon,http://www.ampacimon.com/,Wallonia,"Rue de Wallonie 11, 4460 Grâce-Hollogne, Belgium",Rue de Wallonie 11,4460 Grâce-Hollogne,4460,Grâce-Hollogne,"TH Trucks Liège, 11, Rue de Wallonie, Zoning industriel de Grâce-Hollogne, Grâce-Hollogne, Liège, Wallonie, 4460, België / Belgique / Belgien"
Ask Attis,http://www.askattis.com,Flanders,"Beersebaan 76, 2310 Rijkevorsel, Belgium",Beersebaan 76,2310 Rijkevorsel,2310,Rijkevorsel,"76, Beersebaan, Rijkevorsel, Turnhout, Antwerpen, Vlaanderen, 2310, België / Belgique / Belgien"
Blacklight Analytics,https://www.blacklight-analytics.com/,Wallonia,"Rue du Bois Saint-Jean, 4102 Seraing, Belgium",Rue du Bois Saint-Jean,4102 Seraing,4102,Seraing,"Rue du Bois Saint-Jean, Liège Science-Park, Seraing, Liège, Wallonie, 4102, België / Belgique / Belgien"
Building IQ,https://www.b-iq.be/nl,Flanders,"Oostlaan 5, 8560 Gullegem, Belgium",Oostlaan 5,8560 Gullegem,8560,Gullegem,"Electro Entreprise, 5, Oostlaan, Gullegem, Wevelgem, Kortrijk, West-Vlaanderen, Vlaanderen, 8560, België / Belgique / Belgien"
BUILDWIND,http://www.buildwind.net,Brussels,"Barastraat 175, 1070 Bruxelles, Belgium",Barastraat 175,1070 Bruxelles,1070,Bruxelles,"The Egg, 175, Rue Bara - Barastraat, Cureghem - Kuregem, Anderlecht, Brussel-Hoofdstad - Bruxelles-Capitale, Région de Bruxelles-Capitale - Brussels Hoofdstedelijk Gewest, 1070, België / Belgique / Belgien"
byNubian,https://www.bynubian.com/fr/,Flanders,"Coupure Rechts 64D, 9000 Gent, Belgium",Coupure Rechts 64D,9000 Gent,9000,Gent,"Coupure Rechts, Papegaai, Gent, Oost-Vlaanderen, Vlaanderen, 9000, België / Belgique / Belgien"
Dapesco,https://www.dapesco.com/fr/,Wallonia,"Rue Granbonpré 4, 1348 Ottignies-Louvain-la-Neuve, Belgium",Rue Granbonpré 4,1348 Ottignies-Louvain-la-Neuve,1348,Ottignies-Louvain-la-Neuve,
Enervalis,http://www.enervalis.com,Flanders,"Lummense Kiezel 51, 3510 Hasselt, Belgium",Lummense Kiezel 51,3510 Hasselt,3510,Hasselt,"51A;51C, Lummense Kiezel, Kermt, Hasselt, Limburg, Vlaanderen, 3510, België / Belgique / Belgien"
Ethernetics,http://ethernetics.tech,Flanders,"Antwerpse Steenweg 19, 9080 Lochristi, Belgium",Antwerpse Steenweg 19,9080 Lochristi,9080,Lochristi,"Idola Bussiness Center, 19, Antwerpse Steenweg, Lochristi, Gent, Oost-Vlaanderen, Vlaanderen, 9080, België / Belgique / Belgien"
Foodpairing,https://www.foodpairing.com/fr/home,Flanders,"Ottergemsesteenweg Zuid 808, 9000 Gent, Belgium",Ottergemsesteenweg Zuid 808,9000 Gent,9000,Gent,"Ghelamco Arena, 808, Ottergemsesteenweg-Zuid, Gent, Oost-Vlaanderen, Vlaanderen, 9000, België / Belgique / Belgien"
Hyler,http://www.hyler.be/,Flanders,"Vijvedreef 54, 8710 Wielsbeke, Belgium",Vijvedreef 54,8710 Wielsbeke,8710,Wielsbeke,"54, Vijvedreef, Sint-Baafs-Vijve, Wielsbeke, Tielt, West-Vlaanderen, Vlaanderen, 8710, België / Belgique / Belgien"
IPBuilding,https://www.ipbuilding.be/,Flanders,"Ninovesteenweg 196, 9320 Aalst, Belgium",Ninovesteenweg 196,9320 Aalst,9320,Aalst,"196, Ninovesteenweg, Erembodegem, Aalst, Oost-Vlaanderen, Vlaanderen, 9320, België / Belgique / Belgien"
LAMMP,https://lammp.be/,Flanders,"Mechelsesteenweg 271/bus 2.1, 2018 Antwerpen, Belgium",Mechelsesteenweg 271/bus 2.1,2018 Antwerpen,2018,Antwerpen,
Memoco,https://memoco.eu/,Wallonia,"Rue de Rodeuhaie 6, 1348 Ottignies-Louvain-la-Neuve, Belgium",Rue de Rodeuhaie 6,1348 Ottignies-Louvain-la-Neuve,1348,Ottignies-Louvain-la-Neuve,"Rue de Rodeuhaie, Biéreau, Louvain-la-Neuve, Ottignies-Louvain-la-Neuve, Nivelles, Brabant wallon, Wallonie, 1348, België / Belgique / Belgien"
Opinum,https://www.opinum.com/fr,Wallonia,"Rue Emile Francqui 9, 1435 Mont-Saint-Guibert, Belgium",Rue Emile Francqui 9,1435 Mont-Saint-Guibert,1435,Mont-Saint-Guibert,"9, Rue Émile Francqui, Parc Einstein, Corbais, Mont-Saint-Guibert, Nivelles, Brabant wallon, Wallonie, 1435, België / Belgique / Belgien"
SoundTalks,http://www.soundtalks.be,Flanders,"Interleuvenlaan 15 C, 3001 Leuven, Belgium",Interleuvenlaan 15 C,3001 Leuven,3001,Leuven,"15C, Interleuvenlaan, Leuvens Haasrode, Leuven, Vlaams-Brabant, Vlaanderen, 3001, België / Belgique / Belgien"
Strategic Water,http://strategicwater.be,Flanders,"Gaston Crommenlaan 8, 9050 Gent, Belgium",Gaston Crommenlaan 8,9050 Gent,9050,Gent,"Arcadis, 8, Gaston Crommenlaan, Bellevue, Ledeberg, Gent, Oost-Vlaanderen, Vlaanderen, 9050, België / Belgique / Belgien"
Sumaqua,http://www.sumaqua.be,Flanders,"Sluisstraat 79 b3.01, 3000 Leuven, Belgium",Sluisstraat 79 b3.01,3000 Leuven,3000,Leuven,
The Kobi Company,http://thekobi.com,Flanders,"Ambachtenlaan 7C, 3001 Leuven, Belgium",Ambachtenlaan 7C,3001 Leuven,3001,Leuven,"Ambachtenlaan, Leuvens Haasrode, Leuven, Vlaams-Brabant, Vlaanderen, 3001, België / Belgique / Belgien"
Toadi,http://www.toadi.com,Flanders,"Eugène Bekaertlaan 61, 8790 Waregem, Belgium",Eugène Bekaertlaan 61,8790 Waregem,8790,Waregem,"61, Eugène Bekaertlaan, Zone 2 Vijverdam, Waregem, Kortrijk, West-Vlaanderen, Vlaanderen, 8790, België / Belgique / Belgien"
WeSmart,http://www.wesmart.com,Brussels,"Dieudonné Lefèvrestraat 17, 1020 Brussel, Belgium",Dieudonné Lefèvrestraat 17,1020 Brussel,1020,Brussel,"17, Rue Dieudonné Lefèvre - Dieudonné Lefèvrestraat, Laeken - Laken, Ville de Bruxelles - Stad Brussel, Brussel-Hoofdstad - Bruxelles-Capitale, Région de Bruxelles-Capitale - Brussels Hoofdstedelijk Gewest, 1020, België / Belgique / Belgien"
Aividens,http://www.aividens.com,Brussels,"Vrijwilligerslaan 19, 1160 Oudergem, Belgium",Vrijwilligerslaan 19,1160 Oudergem,1160,Oudergem,"Avenue des Volontaires - Vrijwilligerslaan, Auderghem - Oudergem, Brussel-Hoofdstad - Bruxelles-Capitale, Région de Bruxelles-Capitale - Brussels Hoofdstedelijk Gewest, 1160, België / Belgique / Belgien"
Automated Analytics,http://automatedanalytics.eu,Flanders,"Frans de Cortlaan 3/bus 1, 2610 Antwerpen, Belgium",Frans de Cortlaan 3/bus 1,2610 Antwerpen,2610,Antwerpen,"Frans De Cortlaan, Wilrijk, Antwerpen, Vlaanderen, 2610, België / Belgique / Belgien"
Booqee,http://www.booqee.com,Brussels,"Gentbrugge kouter 5, 9050 Gent, Belgium",Gentbrugge kouter 5,9050 Gent,9050,Gent,
CashForce,http://www.discover-edge.com,Flanders,"Diamantstraat, 2018 Antwerpen, Belgium",Diamantstraat,2018 Antwerpen,2018,Antwerpen,"Diamantstraat, Brederode, Antwerpen, Vlaanderen, 2018, België / Belgique / Belgien"
Complidata,http://complidata.io,Flanders,"Rue de Jargonnant 2, 1207 Genève, Zwitserland, Belgium",Rue de Jargonnant 2,"1207 Genève, Zwitserland",1207,"Genève, Zwitserland","2, Rue de Jargonnant, Les Eaux-Vives, Eaux-Vives, Genève, 1207, Schweiz/Suisse/Svizzera/Svizra"
Contract.fit,http://contract.fit,Flanders,"Rue des Poissonniers 13, 1000 Brussels, Belgium",Rue des Poissonniers 13,1000 Brussels,1000,Brussels,"13, Rue des Poissonniers - Visverkopersstraat, Quartier Saint-Géry - Sint-Gorikswijk, Pentagone - Vijfhoek, Bruxelles - Brussel, Ville de Bruxelles - Stad Brussel, Brussel-Hoofdstad - Bruxelles-Capitale, Région de Bruxelles-Capitale - Brussels Hoofdstedelijk Gewest, 1000, België / Belgique / Belgien"
DeJuristen,https://dejuristen.be/?lang=fr,Flanders,"Heernislaan 19, 9000 Gent, Belgium",Heernislaan 19,9000 Gent,9000,Gent,"19;19A-19B, Heernislaan, Heirnis, Gent, Oost-Vlaanderen, Vlaanderen, 9000, België / Belgique / Belgien"
Docbyte,https://www.docbyte.com/,Flanders,"Kortrijksesteenweg 1144B, 9051 Gent, Belgium",Kortrijksesteenweg 1144B,9051 Gent,9051,Gent,"Kortrijksesteenweg, Sint-Denijs-Westrem, Gent, Oost-Vlaanderen, Vlaanderen, 9051, België / Belgique / Belgien"
Edebex,http://edebex.com,Brussels,"Jules Cockx Straat 8-10 box 2, 1160 Brussels, Belgium",Jules Cockx Straat 8-10 box 2,1160 Brussels,1160,Brussels,
EisphorIA,http://www.eisphoria.com,Brussels,"Rue Van Hammée 41, 1030 Brussels, Belgium",Rue Van Hammée 41,1030 Brussels,1030,Brussels,"41, Rue Van Hammée - Van Hamméestraat, Dailly, Schaerbeek - Schaarbeek, Brussel-Hoofdstad - Bruxelles-Capitale, Région de Bruxelles-Capitale - Brussels Hoofdstedelijk Gewest, 1030, België / Belgique / Belgien"
Features Analytics,http://www.features-analytics.com,Wallonia,"Rue de Charleroi 2, 1400 Nivelles, Belgium",Rue de Charleroi 2,1400 Nivelles,1400,Nivelles,"Features Analytics, 2, Rue de Charleroi, Les Chabotes, Nivelles, Brabant wallon, Wallonie, 1400, België / Belgique / Belgien"
Horus Software,https://horussoftware.be/fr/,Wallonia,"Quai des Ardennes 9, 4020 Liège, Belgium",Quai des Ardennes 9,4020 Liège,4020,Liège,"9, Quai des Ardennes, Vennes, Liège, Wallonie, 4020, België / Belgique / Belgien"
Infinity Mobile,http://infinity-mobile.io,Flanders,"Hoogstraat 29, 9850 Deinze, Belgium",Hoogstraat 29,9850 Deinze,9850,Deinze,"Hoogstraat, Vosselare, Deinze, Gent, Oost-Vlaanderen, Vlaanderen, 9850, België / Belgique / Belgien"
InvestSuite,http://www.investsuite.eu,Flanders,"Sluisstraat 79, 3000 Leuven, Belgium",Sluisstraat 79,3000 Leuven,3000,Leuven,"Grand Café De Hoorn, 79, Sluisstraat, Vaartkom, Leuven, Vlaams-Brabant, Vlaanderen, 3000, België / Belgique / Belgien"
Keyrock,http://keyrock.eu,Brussels,"Louizalaan 251, 1000 Brussel, Belgium",Louizalaan 251,1000 Brussel,1000,Brussel,"251, Avenue Louise - Louizalaan, La Cambre - Ter Kameren, Bruxelles - Brussel, Ville de Bruxelles - Stad Brussel, Brussel-Hoofdstad - Bruxelles-Capitale, Région de Bruxelles-Capitale - Brussels Hoofdstedelijk Gewest, 1000, België / Belgique / Belgien"
Lawrenza,https://lawrenza.com/,Brussels,"Chau. de Lasne 5A, 1330 Rixensart, Belgium",Chau. de Lasne 5A,1330 Rixensart,1330,Rixensart,
Lex.be,http://lex.be,Brussels,"Witte Patersstraat 4, 1040 Etterbeek, Belgium",Witte Patersstraat 4,1040 Etterbeek,1040,Etterbeek,"Shayp, 4, Rue des Pères Blancs - Witte Patersstraat, Etterbeek, Brussel-Hoofdstad - Bruxelles-Capitale, Région de Bruxelles-Capitale - Brussels Hoofdstedelijk Gewest, 1040, België / Belgique / Belgien"
Ludebo,https://www.sec-dpo.com/,Wallonia,"Willebroekkaai 38, 1000 Brussel, Belgium",Willebroekkaai 38,1000 Brussel,1000,Brussel,"Defibtech, 38, Quai de Willebroeck - Willebroekkaai, Tour et Taxis - Thurn en Taxis, Bruxelles - Brussel, Ville de Bruxelles - Stad Brussel, Brussel-Hoofdstad - Bruxelles-Capitale, Région de Bruxelles-Capitale - Brussels Hoofdstedelijk Gewest, 1000, België / Belgique / Belgien"
NGData,http://www.lilyproject.org,Flanders,"bus 10, Sluisweg 2, 9000 Gent, Belgium",bus 10,"Sluisweg 2, 9000 Gent",Sluisweg,"2, 9000 Gent",
RiskConcile,http://www.riskconcile.com,Flanders,"Kapeldreef 60, 3001 Leuven, Belgium",Kapeldreef 60,3001 Leuven,3001,Leuven,"Innovatie- en Incubatiecentrum, 60, Kapeldreef, Heverlee, Leuven, Vlaams-Brabant, Vlaanderen, 3001, België / Belgique / Belgien"
Vadis Tech.,http://www.vadis.com,Brussels,"Tervurenlaan 270, 1150 Brussel, Belgium",Tervurenlaan 270,1150 Brussel,1150,Brussel,"Altran Belux, 270, Avenue de Tervueren - Tervurenlaan, Woluwe-Saint-Pierre Centre - Sint-Pieters-Woluwe Centrum, Woluwe-Saint-Pierre - Sint-Pieters-Woluwe, Brussel-Hoofdstad - Bruxelles-Capitale, Région de Bruxelles-Capitale - Brussels Hoofdstedelijk Gewest, 1150, België / Belgique / Belgien"
WeGroup,http://www.wegroup.be,Flanders,"Moutstraat 68, 9000 Gent, Belgium",Moutstraat 68,9000 Gent,9000,Gent,"The Office, 54;56;58;60;62;64;66;68;70;72;74;76;78;80, Moutstraat, Ottergemse Dries, Gent, Oost-Vlaanderen, Vlaanderen, 9000, België / Belgique / Belgien"
Yields,http://yields.io,Brussels,"Wolstraat 68, 1000 Brussel, Belgium",Wolstraat 68,1000 Brussel,1000,Brussel,"68, Rue aux Laines - Wolstraat, Marolles - Marollen, Pentagone - Vijfhoek, Bruxelles - Brussel, Ville de Bruxelles - Stad Brussel, Brussel-Hoofdstad - Bruxelles-Capitale, Région de Bruxelles-Capitale - Brussels Hoofdstedelijk Gewest, 1000, België / Belgique / Belgien"
ActiveMe,http://activeme.be,Wallonia,"Rue Granbonpré 11 B, 1348 Louvain-La-Neuve, Belgium",Rue Granbonpré 11 B,1348 Louvain-La-Neuve,1348,Louvain-La-Neuve,
AI Blackbelt,https://www.aiblackbelt.com/,Brussels,"Kantersteen 10, 1000 Brussel, Belgium",Kantersteen 10,1000 Brussel,1000,Brussel,"Le Wagon, 10, Cantersteen - Kantersteen, Quartier Royal - Koninklijke Wijk, Pentagone - Vijfhoek, Bruxelles - Brussel, Ville de Bruxelles - Stad Brussel, Brussel-Hoofdstad - Bruxelles-Capitale, Région de Bruxelles-Capitale - Brussels Hoofdstedelijk Gewest, 1000, België / Belgique / Belgien"
ammco,https://ammco.be/en/,Flanders,"Aarschotsesteenweg 147, 3111 Rotselaar, Belgium",Aarschotsesteenweg 147,3111 Rotselaar,3111,Rotselaar,"147, Aarschotsesteenweg, Wezemaal, Rotselaar, Leuven, Vlaams-Brabant, Vlaanderen, 3111, België / Belgique / Belgien"
Be Central,http://becentral.org/,Brussels,"Kantersteen 10/12, 1000 Brussel, Belgium",Kantersteen 10/12,1000 Brussel,1000,Brussel,"Cantersteen - Kantersteen, Quartier Royal - Koninklijke Wijk, Pentagone - Vijfhoek, Bruxelles - Brussel, Ville de Bruxelles - Stad Brussel, Brussel-Hoofdstad - Bruxelles-Capitale, Région de Bruxelles-Capitale - Brussels Hoofdstedelijk Gewest, 1000, België / Belgique / Belgien"
CitizenLab,http://citizenlab.co,Flanders,"Pachecolaan 34, 1000 Brussel, Belgium",Pachecolaan 34,1000 Brussel,1000,Brussel,"Meyboom, 34, Boulevard Pachéco - Pachecolaan, Quartier Marais-Jacqmain - Wijk Marais-Jacqmain, Pentagone - Vijfhoek, Bruxelles - Brussel, Ville de Bruxelles - Stad Brussel, Brussel-Hoofdstad - Bruxelles-Capitale, Région de Bruxelles-Capitale - Brussels Hoofdstedelijk Gewest, 1000, België / Belgique / Belgien"
Comproved,https://comproved.com/,Flanders,"Boshovestraat 100, 2100 Antwerpen, Belgium",Boshovestraat 100,2100 Antwerpen,2100,Antwerpen,"100, Boshovestraat, Deurne, Antwerpen, Vlaanderen, 2100, België / Belgique / Belgien"
Cytomine,http://www.cytomine.be,Wallonia,"Quai Banning 6, 4000 Liège, Belgium",Quai Banning 6,4000 Liège,4000,Liège,"Génie Civil, 6, Quai Banning, Liège, Wallonie, 4000, België / Belgique / Belgien"
Dalberg Data Insights,http://www.dalberg.com,Brussels,"Avenue Louise 523, 1050 Ixelles, Belgium",Avenue Louise 523,1050 Ixelles,1050,Ixelles,"Avenue Louise - Louizalaan, Avenue de la Toison d'Or - Gulden-Vlieslaan, Matongé, Bruxelles - Brussel, Saint-Gilles - Sint-Gillis, Brussel-Hoofdstad - Bruxelles-Capitale, Région de Bruxelles-Capitale - Brussels Hoofdstedelijk Gewest, België / Belgique / Belgien"
Datacamp,http://www.datamind.org,Flanders,"Martelarenlaan 38, 3010 Leuven, Belgium",Martelarenlaan 38,3010 Leuven,3010,Leuven,"Martelarenlaan, Blauwput, Kessel-Lo, Leuven, Vlaams-Brabant, Vlaanderen, 3010, België / Belgique / Belgien"
Dwengo,https://dwengo.org/,Flanders,"Marcel Thirylaan 194, 1200 Brussels, Belgium",Marcel Thirylaan 194,1200 Brussels,1200,Brussels,"194, Avenue Marcel Thiry - Marcel Thirylaan, Woluwe-Saint-Lambert - Sint-Lambrechts-Woluwe, Brussel-Hoofdstad - Bruxelles-Capitale, Région de Bruxelles-Capitale - Brussels Hoofdstedelijk Gewest, 1200, België / Belgique / Belgien"
Hovertone,https://www.hovertone.com/,Wallonia,"Rue des Soeurs Noires 4, 7000 Mons, Belgium",Rue des Soeurs Noires 4,7000 Mons,7000,Mons,"Co-nnexion, 4, Rue des Sœurs Noires, Quartier Rachot, Mons, Hainaut, Wallonie, 7000, België / Belgique / Belgien"
Knowliah,http://www.knowliah.com/,Flanders,"Leuvensesteenweg 282, 3190 Boortmeerbeek, Belgium",Leuvensesteenweg 282,3190 Boortmeerbeek,3190,Boortmeerbeek,"282, Leuvensesteenweg, Boortmeerbeek, Leuven, Vlaams-Brabant, Vlaanderen, 3190, België / Belgique / Belgien"
La Scientotheque,https://lascientotheque.be/,Brussels,"Expérimentarium de Physique de l'ULB CP238 Triomflaan, 1050 Brussel, Belgium",Expérimentarium de Physique de l'ULB CP238 Triomflaan,1050 Brussel,1050,Brussel,
Look,http://www.look-app.net,Wallonia,"Av. Reine Astrid 92, 1310 La Hulpe, Belgium",Av. Reine Astrid 92,1310 La Hulpe,1310,La Hulpe,"92, Avenue Reine Astrid, La Hulpe, Nivelles, Brabant wallon, Wallonie, 1310, België / Belgique / Belgien"
Molengeek,https://molengeek.com,Brussels,"Pl. de la Minoterie 10, 1080 Molenbeek-Saint-Jean, Belgium",Pl. de la Minoterie 10,1080 Molenbeek-Saint-Jean,1080,Molenbeek-Saint-Jean,"MolenGeek, 10, Place de la Minoterie - Meelfabrieksplein, Rive Gauche - Linkeroever, Molenbeek-Saint-Jean - Sint-Jans-Molenbeek, Brussel-Hoofdstad - Bruxelles-Capitale, Région de Bruxelles-Capitale - Brussels Hoofdstedelijk Gewest, 1080, België / Belgique / Belgien"
Musimap,http://www.musimap.com,Wallonia,"Vrijwilligerslaan 19, 1160 Oudergem, Belgium",Vrijwilligerslaan 19,1160 Oudergem,1160,Oudergem,"Avenue des Volontaires - Vrijwilligerslaan, Auderghem - Oudergem, Brussel-Hoofdstad - Bruxelles-Capitale, Région de Bruxelles-Capitale - Brussels Hoofdstedelijk Gewest, 1160, België / Belgique / Belgien"
Numeria,http://numeria.be/,Wallonia,"Parc des Bellevues - Eragny Parc 5 allée Rosa Luxembourg, 95610 Éragny, Frankrijk, Belgium",Parc des Bellevues - Eragny Parc 5 allée Rosa Luxembourg,"95610 Éragny, Frankrijk",95610,"Éragny, Frankrijk",
OPSORO,http://www.opsoro.be,Flanders,"De Krook Platteberg 11, 9000 Gent, Belgium",De Krook Platteberg 11,9000 Gent,9000,Gent,
Scriptbook,http://scriptbook.io,Flanders,"Gasstraat  37/8, 9160 Lokeren, Belgium",Gasstraat  37/8,9160 Lokeren,9160,Lokeren,"Gasstraat, Stationswijk, Lokeren, Sint-Niklaas, Oost-Vlaanderen, Vlaanderen, 9160, België / Belgique / Belgien"
Aloxy,https://www.aloxy.io/,Flanders,"Sint-Pietersvliet 7, 2000 Antwerpen, Belgium",Sint-Pietersvliet 7,2000 Antwerpen,2000,Antwerpen,"SyncTrace buitendienstoptimalisatie, 7, Sint-Pietersvliet, Schipperskwartier, Antwerpen, Vlaanderen, 2000, België / Belgique / Belgien"
AMIA Systems,http://www.amia-systems.com,Brussels,"Greenbizz Dieudonné Lefèvrestraat 17, 1020 Brussel, Belgium",Greenbizz Dieudonné Lefèvrestraat 17,1020 Brussel,1020,Brussel,
Arkite,https://arkite.com/,Flanders,"C-Mine 12, 3600 Genk, Belgium",C-Mine 12,3600 Genk,3600,Genk,"C-Mine Crib, 12, C-mine, Genk, Hasselt, Limburg, Vlaanderen, 3600, België / Belgique / Belgien"
Azumuta,https://www.azumuta.com/,Flanders,"Technologiepark-Zwijnaarde 122, 9052 Gent, Belgium",Technologiepark-Zwijnaarde 122,9052 Gent,9052,Gent,"IDLab (imec - Ghent University), 122, Technologiepark-Zwijnaarde, Wetenschapspark Ardoyen, Zwijnaarde, Gent, Oost-Vlaanderen, Vlaanderen, 9052, België / Belgique / Belgien"
Deltaray,https://deltaray.eu/,Flanders,"Schaliënhoefdreef 20T, 2970 Antwerpen, Belgium",Schaliënhoefdreef 20T,2970 Antwerpen,2970,Antwerpen,"Schaliënhoefdreef, Schilde, Antwerpen, Vlaanderen, 2970, België / Belgique / Belgien"
Diabatix,http://diabatix.com,Flanders,"Technologielaan 11, 3001 Leuven, Belgium",Technologielaan 11,3001 Leuven,3001,Leuven,"11, Technologielaan, Leuvens Haasrode, Leuven, Vlaams-Brabant, Vlaanderen, 3001, België / Belgique / Belgien"
epic blue,http://www.epic.blue,Flanders,"Asstraat 5, 3000 Leuven, Belgium",Asstraat 5,3000 Leuven,3000,Leuven,"Asstraat, Vaartkom, Leuven, Vlaams-Brabant, Vlaanderen, 3000, België / Belgique / Belgien"
Factry,http://www.factry.io,Brussels,"Oktrooiplein 1, 9000 Gent, Belgium",Oktrooiplein 1,9000 Gent,9000,Gent,"Quantum, 1, Oktrooiplein, Dampoortwijk, Gent, Oost-Vlaanderen, Vlaanderen, 9000, België / Belgique / Belgien"
Flexible Robotic Solutions,http://www.frsrobotics.com,Flanders,"Kapeldreef 60, 3001 Leuven, Belgium",Kapeldreef 60,3001 Leuven,3001,Leuven,"Innovatie- en Incubatiecentrum, 60, Kapeldreef, Heverlee, Leuven, Vlaams-Brabant, Vlaanderen, 3001, België / Belgique / Belgien"
i-Care,https://www.icareweb.com/fr-be/,Wallonia,"Rue René Descartes 18, 7000 Mons, Belgium",Rue René Descartes 18,7000 Mons,7000,Mons,"Matéria Nova, 18, Rue René Descartes, Parc scientifique Initialis, Le Fort, Mons, Hainaut, Wallonie, 7000, België / Belgique / Belgien"
Inimco,https://inimco.com/,Flanders,"Frankrijkstraat 11/k5, 9140 Temse, Belgium",Frankrijkstraat 11/k5,9140 Temse,9140,Temse,"Frankrijkstraat, Temse, Sint-Niklaas, Oost-Vlaanderen, Vlaanderen, 9140, België / Belgique / Belgien"
Iqunet,http://iqunet.com,Flanders,"Broekstraat 82, 9220 Hamme, Belgium",Broekstraat 82,9220 Hamme,9220,Hamme,"82, Broekstraat, Hamme, Dendermonde, Oost-Vlaanderen, Vlaanderen, 9220, België / Belgique / Belgien"
Magics Instruments,http://www.magics.tech,Flanders,"Cipalstraat 3, 2440 Geel, Belgium",Cipalstraat 3,2440 Geel,2440,Geel,"3, Cipalstraat, Geel, Turnhout, Antwerpen, Vlaanderen, 2440, België / Belgique / Belgien"
Metheore,http://metheore.be/,Wallonia,"Rue du Bois Saint-Jean 15/1, 4102 Seraing, Belgium",Rue du Bois Saint-Jean 15/1,4102 Seraing,4102,Seraing,"AARDEX Group, 15/1, Rue du Bois Saint-Jean, Liège Science-Park, Seraing, Liège, Wallonie, 4102, België / Belgique / Belgien"
MH Automation,http://www.armin-robot.com,Wallonia,"Rue d'Houdeng 224, 7070 Le Rœulx, Belgium",Rue d'Houdeng 224,7070 Le Rœulx,7070,Le Rœulx,"Rue d'Houdeng, Le Rœulx, Soignies, Hainaut, Wallonie, 7070, België / Belgique / Belgien"
Movanis,http://www.movanis.be/,Flanders,"Movanis, Mijnwerkerslaan 14, 3550 Heusden-Zolder, Belgium",Movanis,"Mijnwerkerslaan 14, 3550 Heusden-Zolder",Mijnwerkerslaan,"14, 3550 Heusden-Zolder",
PEPITe,https://www.pepite.com/,Wallonia,"Forgeur 4/1, 4000 Liège, Belgium",Forgeur 4/1,4000 Liège,4000,Liège,"Rue Forgeur, Centre, Liège, Wallonie, 4000, België / Belgique / Belgien"
Pick-it,http://www.pickit3d.com,Flanders,"Gaston Geenslaan 9, 3001 Oud-Heverlee, Belgium",Gaston Geenslaan 9,3001 Oud-Heverlee,3001,Oud-Heverlee,
SCM Revamp,http://www.scmrevamp.com,Wallonia,"Clos St Feuillien 5, 7070 Le Rœulx, Belgium",Clos St Feuillien 5,7070 Le Rœulx,7070,Le Rœulx,
Sitemark,https://www.sitemark.com,Flanders,"Gaston Geenslaan 9, 3001 Leuven, Belgium",Gaston Geenslaan 9,3001 Leuven,3001,Leuven,"Gaston Geenslaan, Wetenschapspark Arenberg, Heverlee, Leuven, Vlaams-Brabant, Vlaanderen, 3001, België / Belgique / Belgien"
Sitemark,http:// https://www.smartnodes.be/,Wallonia,"Val Benoit Bât. Génie Civil Quai Banning 6, 4000 Liège, Belgium",Val Benoit Bât. Génie Civil Quai Banning 6,4000 Liège,4000,Liège,
Solvice,http://www.solvice.io,Flanders,"Vlasgaardstraat 52, 9000 Gent, Belgium",Vlasgaardstraat 52,9000 Gent,9000,Gent,"Gig & Grow, 52, Vlasgaardstraat, Brugse Poort, Gent, Oost-Vlaanderen, Vlaanderen, 9000, België / Belgique / Belgien"
The Grain,https://www.thegrain.pro/,Flanders,"Sint-Pietersvliet 7, 2000 Antwerpen, Belgium",Sint-Pietersvliet 7,2000 Antwerpen,2000,Antwerpen,"SyncTrace buitendienstoptimalisatie, 7, Sint-Pietersvliet, Schipperskwartier, Antwerpen, Vlaanderen, 2000, België / Belgique / Belgien"
ThePickPath,http://thepickpath.com,Wallonia,"Place Arthur Maquet 2, 4263 Braives, Belgium",Place Arthur Maquet 2,4263 Braives,4263,Braives,"2, Place Arthur Maquet, Braives, Waremme, Liège, Wallonie, 4263, België / Belgique / Belgien"
Tractonomy,http://www.tractonomy.com,Flanders,"Nelson Mandelaplein 2, 8500 Kortrijk, Belgium",Nelson Mandelaplein 2,8500 Kortrijk,8500,Kortrijk,"Tranzit, 2, Nelson Mandelaplein, Kortrijk, West-Vlaanderen, Vlaanderen, 8500, België / Belgique / Belgien"
Trendminer,https://www.trendminer.com,Flanders,"Kempische Steenweg 309/5, 3500 Hasselt, Belgium",Kempische Steenweg 309/5,3500 Hasselt,3500,Hasselt,"Kempische Steenweg, Kempische Wijk, Hasselt, Limburg, Vlaanderen, 3500, België / Belgique / Belgien"
Tusk IC,http://www.tusk-ic.com,Flanders,"Cuperusstraat 5, 2018 Antwerpen, Belgium",Cuperusstraat 5,2018 Antwerpen,2018,Antwerpen,"5, Cuperusstraat, Groen Kwartier, Antwerpen, Vlaanderen, 2018, België / Belgique / Belgien"
urbantz,http://www.urbantz.com,Brussels,"Louizalaan 251, 1000 Brussel, Belgium",Louizalaan 251,1000 Brussel,1000,Brussel,"251, Avenue Louise - Louizalaan, La Cambre - Ter Kameren, Bruxelles - Brussel, Ville de Bruxelles - Stad Brussel, Brussel-Hoofdstad - Bruxelles-Capitale, Région de Bruxelles-Capitale - Brussels Hoofdstedelijk Gewest, 1000, België / Belgique / Belgien"
VoxelSensors,https://www.voxelsensors.com/,Brussels,"Rue Pierre Decoster 96 / 1, 1190 Forest, Belgium",Rue Pierre Decoster 96 / 1,1190 Forest,1190,Forest,"Rue Pierre Decoster - Pierre Decosterstraat, Altitude Cent - Hoogte Honderd, Forest - Vorst, Brussel-Hoofdstad - Bruxelles-Capitale, Région de Bruxelles-Capitale - Brussels Hoofdstedelijk Gewest, 1190, België / Belgique / Belgien"
Yazzoom,http://www.yazzoom.com,Flanders,"Derbystraat 65/building A, 9051 Gent, Belgium",Derbystraat 65/building A,9051 Gent,9051,Gent,
Zensor,http://www.zensor.be,Brussels,"Witte Patersstraat 4, 1040 Etterbeek, Belgium",Witte Patersstraat 4,1040 Etterbeek,1040,Etterbeek,"Shayp, 4, Rue des Pères Blancs - Witte Patersstraat, Etterbeek, Brussel-Hoofdstad - Bruxelles-Capitale, Région de Bruxelles-Capitale - Brussels Hoofdstedelijk Gewest, 1040, België / Belgique / Belgien"
Airshaper,http://www.airshaper.com,Flanders,"Kreeftstraat 20, 2018 Antwerp, Belgium",Kreeftstraat 20,2018 Antwerp,2018,Antwerp,"20, Kreeftstraat, Zurenborg, Antwerpen, Vlaanderen, 2018, België / Belgique / Belgien"
Conundra,http://www.conundra.eu,Flanders,"Voordries 41, 9860 Oosterzele, Belgium",Voordries 41,9860 Oosterzele,9860,Oosterzele,"Conundra, 41, Voordries, Oosterzele, Gent, Oost-Vlaanderen, Vlaanderen, 9860, België / Belgique / Belgien"
Dropon,http://dropon.io,Flanders,"Oktrooiplein 1/bus 201, 9000 Gent, Belgium",Oktrooiplein 1/bus 201,9000 Gent,9000,Gent,
eXia,https://www.exia.eu/site/,Brussels,"Pleinlaan 2, 1050 Brussels, Belgium",Pleinlaan 2,1050 Brussels,1050,Brussels,"Vrije Universiteit Brussel — Campus Etterbeek, 2, Boulevard de la Plaine - Pleinlaan, Usquare, Ixelles - Elsene, Brussel-Hoofdstad - Bruxelles-Capitale, Région de Bruxelles-Capitale - Brussels Hoofdstedelijk Gewest, 1050, België / Belgique / Belgien"
Ivex,http://www.ivex.ai,Flanders,"Kapeldreef 60, 3001 Leuven, Belgium",Kapeldreef 60,3001 Leuven,3001,Leuven,"Innovatie- en Incubatiecentrum, 60, Kapeldreef, Heverlee, Leuven, Vlaams-Brabant, Vlaanderen, 3001, België / Belgique / Belgien"
Jeasy,http://jeasy.ai,Brussels,"De Broquevillelaan 12, 1150 Brussel, Belgium",De Broquevillelaan 12,1150 Brussel,1150,Brussel,"12, Avenue de Broqueville - de Broquevillelaan, Woluwe-Saint-Pierre - Sint-Pieters-Woluwe, Brussel-Hoofdstad - Bruxelles-Capitale, Région de Bruxelles-Capitale - Brussels Hoofdstedelijk Gewest, 1150, België / Belgique / Belgien"
Mabo E&A,http://www.agv-automation.com,Flanders,"Mallekotstraat 43a, 2500 Lier, Belgium",Mallekotstraat 43a,2500 Lier,2500,Lier,"Mallekotstraat, Lier, Mechelen, Antwerpen, Vlaanderen, 2500, België / Belgique / Belgien"
Motulus,https://motulus.com/,Flanders,"Antwerpse Steenweg 61, 2660 Antwerpen, Belgium",Antwerpse Steenweg 61,2660 Antwerpen,2660,Antwerpen,"59-61, Antwerpsesteenweg, Hertogvelden, Hoboken, Antwerpen, Vlaanderen, 2660, België / Belgique / Belgien"
Movetex,http://movetex.be,Flanders,"Provincieweg 405, 9550 Herzele, Belgium",Provincieweg 405,9550 Herzele,9550,Herzele,"Provincieweg, Herzele, Aalst, Oost-Vlaanderen, Vlaanderen, 9550, België / Belgique / Belgien"
OTIV,http://www.otiv.ai,Flanders,"Vijfwindgatenstraat 21 E, 9000 Gent, Belgium",Vijfwindgatenstraat 21 E,9000 Gent,9000,Gent,"21;21C;21E-21F, Vijfwindgatenstraat, Brusselse Poort, Gent, Oost-Vlaanderen, Vlaanderen, 9000, België / Belgique / Belgien"
railnova,https://www.railnova.eu,Brussels,"Emile Feronstraat 153, 1060 Brussel, Belgium",Emile Feronstraat 153,1060 Brussel,1060,Brussel,"Railnova, 153, Rue Émile Feron - Émile Feronstraat, Saint-Gilles - Sint-Gillis, Brussel-Hoofdstad - Bruxelles-Capitale, Région de Bruxelles-Capitale - Brussels Hoofdstedelijk Gewest, 1060, België / Belgique / Belgien"
Sailsense,http://www.sailsense.io,Brussels,"Kantersteen 47, 1000 Brussel, Belgium",Kantersteen 47,1000 Brussel,1000,Brussel,"FedEx Express, 47, Cantersteen - Kantersteen, Quartier Royal - Koninklijke Wijk, Pentagone - Vijfhoek, Bruxelles - Brussel, Ville de Bruxelles - Stad Brussel, Brussel-Hoofdstad - Bruxelles-Capitale, Région de Bruxelles-Capitale - Brussels Hoofdstedelijk Gewest, 1000, België / Belgique / Belgien"
SEAFAR,http://www.seafar.eu,Flanders,"Sint-Pietersvliet 7, 2000 Antwerpen, Belgium",Sint-Pietersvliet 7,2000 Antwerpen,2000,Antwerpen,"SyncTrace buitendienstoptimalisatie, 7, Sint-Pietersvliet, Schipperskwartier, Antwerpen, Vlaanderen, 2000, België / Belgique / Belgien"
Westray,http://www.westray.eu,Flanders,"Lange Lobroekstraat 41-45, 2060 Antwerp, Belgium",Lange Lobroekstraat 41-45,2060 Antwerp,2060,Antwerp,"Lange Lobroekstraat, Dam, Antwerpen, Vlaanderen, 2060, België / Belgique / Belgien"
XenomatiX,http://www.xenomatix.com,Flanders,"Research Park Haasrode, Romeinse straat 6, 3001 Leuven, Belgium",Research Park Haasrode,"Romeinse straat 6, 3001 Leuven",Romeinse,"straat 6, 3001 Leuven",
Amoobi,https://www.amoobi.com/,Wallonia,"Rue de l'Industrie 20, 1400 Nivelles, Belgium",Rue de l'Industrie 20,1400 Nivelles,1400,Nivelles,"Amoobi, 20, Rue de l'Industrie, Nivelles-Sud I, Nivelles, Brabant wallon, Wallonie, 1400, België / Belgique / Belgien"
Calltic,http://www.calltic.com,Flanders,"Vijfwindgatenstraat 21, 9000 Gent, Belgium",Vijfwindgatenstraat 21,9000 Gent,9000,Gent,"21;21C;21E-21F, Vijfwindgatenstraat, Brusselse Poort, Gent, Oost-Vlaanderen, Vlaanderen, 9000, België / Belgique / Belgien"
Elymentz,http://www.elymentz.com,Brussels,"De Meeûssquare 38/40, 1000 Brussel, Belgium",De Meeûssquare 38/40,1000 Brussel,1000,Brussel,"Square de Meeûs - de Meeûssquare, Quartier européen - Europese Wijk, Bruxelles - Brussel, Ville de Bruxelles - Stad Brussel, Brussel-Hoofdstad - Bruxelles-Capitale, Région de Bruxelles-Capitale - Brussels Hoofdstedelijk Gewest, 1000, België / Belgique / Belgien"
Retailsonar,http://retailsonar.com,Flanders,"Ferdinand Lousbergskaai 103, 9000 Gent, Belgium",Ferdinand Lousbergskaai 103,9000 Gent,9000,Gent,"RetailSonar, 103, Ferdinand Lousbergskaai, Heirnis, Gent, Oost-Vlaanderen, Vlaanderen, 9000, België / Belgique / Belgien"
RetViews,http://retviews.com,Brussels,"Louizalaan 231, 1050 Brussel, Belgium",Louizalaan 231,1050 Brussel,1050,Brussel,"Belspo, 231, Avenue Louise - Louizalaan, La Cambre - Ter Kameren, Bruxelles - Brussel, Ville de Bruxelles - Stad Brussel, Brussel-Hoofdstad - Bruxelles-Capitale, Région de Bruxelles-Capitale - Brussels Hoofdstedelijk Gewest, 1050, België / Belgique / Belgien"
Riaktr,http://www.riaktr.com,Brussels,"Kapitein Crespelstraat 2/4, 1050 Elsene, Belgium",Kapitein Crespelstraat 2/4,1050 Elsene,1050,Elsene,"Rue Capitaine Crespel - Kapitein Crespelstraat, Ixelles - Elsene, Brussel-Hoofdstad - Bruxelles-Capitale, Région de Bruxelles-Capitale - Brussels Hoofdstedelijk Gewest, 1050, België / Belgique / Belgien"
Shavatar,http://www.shavatar.me,Flanders,"Eerste Meistraat 75, 2845 Niel, Belgium",Eerste Meistraat 75,2845 Niel,2845,Niel,"75, Eerste Meistraat, Niel, Antwerpen, Vlaanderen, 2845, België / Belgique / Belgien"
The retail factory,https://theretailfactory.be,Flanders,"Meir 78, 2000 Antwerpen
 , Belgium",Meir 78,2000 Antwerpen,2000,Antwerpen,"Delhaize, 78, Meir, Theaterbuurt, Antwerpen, Vlaanderen, 2000, België / Belgique / Belgien"
Treedy’s,http://treedys.com/,Brussels,"Avenue George Bergmann 117, 1050 Ixelles, Belgium",Avenue George Bergmann 117,1050 Ixelles,1050,Ixelles,"117, Avenue George Bergmann - George Bergmannlaan, Boondael - Boondaal, Ixelles - Elsene, Brussel-Hoofdstad - Bruxelles-Capitale, Région de Bruxelles-Capitale - Brussels Hoofdstedelijk Gewest, 1050, België / Belgique / Belgien"
Araani,http://www.araani.com,Flanders,"Luipaardstraat 12, 8500 Kortrijk, Belgium",Luipaardstraat 12,8500 Kortrijk,8500,Kortrijk,"Howest-The Square, 12A, Luipaardstraat, Stasegem, Kortrijk, West-Vlaanderen, Vlaanderen, 8500, België / Belgique / Belgien"
Depthen,https://www.depthen.com/fr/,Wallonia,"Bd Dolez 31, 7000 Mons, Belgium",Bd Dolez 31,7000 Mons,7000,Mons,"UMons - Campus Polytech - Site Dolez, 31-33, Boulevard Dolez, Quartier Rachot, Mons, Hainaut, Wallonie, 7000, België / Belgique / Belgien"
EyeSee,http://www.eyesee.be,Flanders,"Franklin Rooseveltlaan 349, 9000 Gent, Belgium",Franklin Rooseveltlaan 349,9000 Gent,9000,Gent,"Fluvius, 346-351;347A-347N;348A-348G;348I-348M;348O-348H;348N;349A-349Z;350A-350C;350E-350L, Franklin Rooseveltlaan, Zuid, Gent, Oost-Vlaanderen, Vlaanderen, 9000, België / Belgique / Belgien"
Fielddrive,http://www.fielddrive.eu,Flanders,"Mechelsesteenweg 303, 2830 Willebroek, Belgium",Mechelsesteenweg 303,2830 Willebroek,2830,Willebroek,"303, Mechelsesteenweg, Blaasveld, Willebroek, Mechelen, Antwerpen, Vlaanderen, 2830, België / Belgique / Belgien"
Humainly,http://webmonks.vision,Flanders,"311 p.o. 1.02 Kempische Steenweg, 3500 Hasselt, Belgium",311 p.o. 1.02 Kempische Steenweg,3500 Hasselt,3500,Hasselt,
Kaspard,http://kaspard.com,Brussels,"Vorstlaan 36, 1170 Watermaal-Bosvoorde, Belgium",Vorstlaan 36,1170 Watermaal-Bosvoorde,1170,Watermaal-Bosvoorde,"36, Boulevard du Souverain - Vorstlaan, Floréal, Watermael-Boitsfort - Watermaal-Bosvoorde, Brussel-Hoofdstad - Bruxelles-Capitale, Région de Bruxelles-Capitale - Brussels Hoofdstedelijk Gewest, 1170, België / Belgique / Belgien"
Limecraft,https://www.limecraft.com/,Flanders,"Sint-Salvatorstraat 18b/301, 9000 Gent, Belgium",Sint-Salvatorstraat 18b/301,9000 Gent,9000,Gent,"Sint-Salvatorstraat, Tolhuis, Gent, Oost-Vlaanderen, Vlaanderen, 9000, België / Belgique / Belgien"
Macty,http://macty.eu,Flanders,"Prof. R. Van Overstraetenplein 2, 3000 Leuven, Belgium",Prof. R. Van Overstraetenplein 2,3000 Leuven,3000,Leuven,
Mintt,https://mintt.care/,Wallonia,"Louizalaan 251, 1050 Brussel, Belgium",Louizalaan 251,1050 Brussel,1050,Brussel,"Ambassade de la République Dominicaine - Ambassade van de Dominicaanse Republiek, 251, Avenue Louise - Louizalaan, La Cambre - Ter Kameren, Bruxelles - Brussel, Ville de Bruxelles - Stad Brussel, Brussel-Hoofdstad - Bruxelles-Capitale, Région de Bruxelles-Capitale - Brussels Hoofdstedelijk Gewest, 1050, België / Belgique / Belgien"
Phoenix AI,https://www.phoenix-ai.com/,Wallonia,"2, Rue du vent des noirs moineaux, 7600 Péruwelz, Belgium",2,"Rue du vent des noirs moineaux, 7600 Péruwelz",Rue,"du vent des noirs moineaux, 7600 Péruwelz",
PixelVision,http://www.pixelvision.be,Flanders,"Kempische Steenweg 303/b23, 3500 Hasselt, Belgium",Kempische Steenweg 303/b23,3500 Hasselt,3500,Hasselt,
Piximate,http://www.piximate.net,Wallonia,"Av. Reine Astrid 92, 1310 La Hulpe, Belgium",Av. Reine Astrid 92,1310 La Hulpe,1310,La Hulpe,"92, Avenue Reine Astrid, La Hulpe, Nivelles, Brabant wallon, Wallonie, 1310, België / Belgique / Belgien"
Robovision,http://www.robovision.ai,Flanders,"Technologiepark-Zwijnaarde 80, 9052 Gent, Belgium",Technologiepark-Zwijnaarde 80,9052 Gent,9052,Gent,"80, Technologiepark-Zwijnaarde, Wetenschapspark Ardoyen, Zwijnaarde, Gent, Oost-Vlaanderen, Vlaanderen, 9052, België / Belgique / Belgien"
SeeMe,http://seeme.ai,Flanders,"Leschot 28, 2440 Geel, Belgium",Leschot 28,2440 Geel,2440,Geel,"28, Leschot, Geel, Turnhout, Antwerpen, Vlaanderen, 2440, België / Belgique / Belgien"
Segments.ai,http://segments.ai,Flanders,"Professor Roger Van Overstraetenplein 5, 3000 Leuven, Belgium",Professor Roger Van Overstraetenplein 5,3000 Leuven,3000,Leuven,"5, Professor Roger Van Overstraetenplein, Leuven, Vlaams-Brabant, Vlaanderen, 3000, België / Belgique / Belgien"
Sensifai,http://www.sensifai.com,Brussels,"Mechelsesteenweg 455, 1950 Kraainem, Belgium, Belgium",Mechelsesteenweg 455,"1950 Kraainem, Belgium",1950,"Kraainem, Belgium","455, Mechelsesteenweg - Chaussée de Malines, Tervuren, Kraainem, Halle-Vilvoorde, Vlaams-Brabant, Vlaanderen, 1950, België / Belgique / Belgien"
VeriFlix,http://www.veriflix.ai/en/,Wallonia,"Av. Reine Astrid 92, 1310 La Hulpe, Belgium",Av. Reine Astrid 92,1310 La Hulpe,1310,La Hulpe,"92, Avenue Reine Astrid, La Hulpe, Nivelles, Brabant wallon, Wallonie, 1310, België / Belgique / Belgien"
ViBE,http://www.vibeinmotion.com,Wallonia,"Turnhoutsebaan 139a, 2140 Antwerpen, Belgium",Turnhoutsebaan 139a,2140 Antwerpen,2140,Antwerpen,"Eco-café, 139,139A, Turnhoutsebaan, Borgerhout Intra Muros, Borgerhout, Antwerpen, Vlaanderen, 2140, België / Belgique / Belgien"
3State,https://3state.eu/,Flanders,"Kanunnik de Deckerstraat 20a, 2800 Mechelen, Belgium",Kanunnik de Deckerstraat 20a,2800 Mechelen,2800,Mechelen,"Kanunnik De Deckerstraat, Marokken, Mechelen, Antwerpen, Vlaanderen, 2800, België / Belgique / Belgien"
Aerospacelab,http://www.aerospacelab.be/,Wallonia,"Rue André Dumont 9, 1435 Mont-Saint-Guibert, Belgium",Rue André Dumont 9,1435 Mont-Saint-Guibert,1435,Mont-Saint-Guibert,"9, Rue André Dumont, Parc Einstein, Corbais, Mont-Saint-Guibert, Nivelles, Brabant wallon, Wallonie, 1435, België / Belgique / Belgien"
Airobot,https://airobot.eu/,Flanders,"1090, Lichtenberglaan, 3800 Sint-Truiden, Belgium",1090,"Lichtenberglaan, 3800 Sint-Truiden","Lichtenberglaan,",3800 Sint-Truiden,"DronePort Cuisine, 1090, Lichtenberglaan, Sint-Truiden, Hasselt, Limburg, Vlaanderen, 3800, België / Belgique / Belgien"
ALX systems,http://www.alxsys.com,Flanders,"Rue de la Résistance 26, 4681 Oupeye, Belgium",Rue de la Résistance 26,4681 Oupeye,4681,Oupeye,"AB Tech, 26, Rue de la Résistance, Hermalle-sous-Argenteau, Liège, Wallonie, 4681, België / Belgique / Belgien"
CrowdScan,http://www.crowdscan.be/,Flanders,"Sint-Pietersvliet 7, 2000 Antwerpen, Belgium",Sint-Pietersvliet 7,2000 Antwerpen,2000,Antwerpen,"SyncTrace buitendienstoptimalisatie, 7, Sint-Pietersvliet, Schipperskwartier, Antwerpen, Vlaanderen, 2000, België / Belgique / Belgien"
DeltaQ,http://www.deltaq.io,Brussels,"Antwerpselaan 40, 1000 Brussel, Belgium",Antwerpselaan 40,1000 Brussel,1000,Brussel,"DigitYser, 40, Boulevard d'Anvers - Antwerpselaan, Quartier des Quais - Kaaienwijk, Pentagone - Vijfhoek, Bruxelles - Brussel, Ville de Bruxelles - Stad Brussel, Brussel-Hoofdstad - Bruxelles-Capitale, Région de Bruxelles-Capitale - Brussels Hoofdstedelijk Gewest, 1000, België / Belgique / Belgien"
Dronematrix,https://www.dronematrix.eu/,Flanders,"Herkenrodesingel 4 / 1, 3500 Hasselt, Belgium",Herkenrodesingel 4 / 1,3500 Hasselt,3500,Hasselt,"Herkenrodesingel, Heilig Hartwijk, Hasselt, Limburg, Vlaanderen, 3500, België / Belgique / Belgien"
EASICS,https://www.easics.com/,Flanders,"Diestsevest 32/2B, 3000 Leuven, Belgium",Diestsevest 32/2B,3000 Leuven,3000,Leuven,"Diestsevest, Sint-Maartensdal, Leuven, Vlaams-Brabant, Vlaanderen, 3000, België / Belgique / Belgien"
Edgise,http://www.edgise.com,Flanders,"Gaston Geenslaan 11/B4, 3001 Leuven, Belgium",Gaston Geenslaan 11/B4,3001 Leuven,3001,Leuven,"Gaston Geenslaan, Wetenschapspark Arenberg, Heverlee, Leuven, Vlaams-Brabant, Vlaanderen, 3001, België / Belgique / Belgien"
Geckomatics,http://www.geckomatics.com,Flanders,"Borsbeeksebrug 34, 2600 Antwerpen-Berchem, Belgium",Borsbeeksebrug 34,2600 Antwerpen-Berchem,2600,Antwerpen-Berchem,"Park Inn, 34, Borsbeeksebrug, Groenenhoek, Berchem, Antwerpen, Vlaanderen, 2600, België / Belgique / Belgien"
Intermodalics,https://www.intermodalics.eu/,Flanders,"Gaston Geenslaan 9, 3001 Leuven, Belgium",Gaston Geenslaan 9,3001 Leuven,3001,Leuven,"Gaston Geenslaan, Wetenschapspark Arenberg, Heverlee, Leuven, Vlaams-Brabant, Vlaanderen, 3001, België / Belgique / Belgien"
IOOS,http://www.ioos.be,Flanders,"Donklaan 182, 9290 Berlare, Belgium",Donklaan 182,9290 Berlare,9290,Berlare,"182, Donklaan, Overmere, Berlare, Dendermonde, Oost-Vlaanderen, Vlaanderen, 9290, België / Belgique / Belgien"
March,http://www.letsmarch.be,Flanders,"Luxemburgstraat 16B, 1000 Brussels , Belgium",Luxemburgstraat 16B,1000 Brussels,1000,Brussels,"16B, Rue du Luxembourg - Luxemburgstraat, Bruxelles - Brussel, Ville de Bruxelles - Stad Brussel, Brussel-Hoofdstad - Bruxelles-Capitale, Région de Bruxelles-Capitale - Brussels Hoofdstedelijk Gewest, 1000, België / Belgique / Belgien"
Oscars,https://www.oscars-sa.eu/,Wallonia,"Place du Chapitre 16, 5300 Andenne, Belgium",Place du Chapitre 16,5300 Andenne,5300,Andenne,"16, Place du Chapitre, Andenne, Namur, Wallonie, 5300, België / Belgique / Belgien"
Rockestate,http://www.rockestate.be,Brussels,"Witte Patersstraat 4, 1040 Etterbeek, Belgium",Witte Patersstraat 4,1040 Etterbeek,1040,Etterbeek,"Shayp, 4, Rue des Pères Blancs - Witte Patersstraat, Etterbeek, Brussel-Hoofdstad - Bruxelles-Capitale, Région de Bruxelles-Capitale - Brussels Hoofdstedelijk Gewest, 1040, België / Belgique / Belgien"
SpacePal,http://spacepal.eu,Flanders,"Bijkhoevelaan 32c, 2110 Wijnegem, Belgium",Bijkhoevelaan 32c,2110 Wijnegem,2110,Wijnegem,"Toshiba, 32,32A,32B,32C, Bijkhoevelaan, Wijnegem Zone 1 - Den Hoek, Wijnegem, Antwerpen, Vlaanderen, 2110, België / Belgique / Belgien"
Uware Tech.,http://uware.io,Brussels,"de Perckestraat 127, 1180 Brussel, Belgium",de Perckestraat 127,1180 Brussel,1180,Brussel,"127, Rue de Percke - de Perckestraat, Verrewinkel, Uccle - Ukkel, Brussel-Hoofdstad - Bruxelles-Capitale, Vlaams-Brabant, Région de Bruxelles-Capitale - Brussels Hoofdstedelijk Gewest, 1180, België / Belgique / Belgien"
Bothive,http://bothive.be,Flanders,"Coupure Rechts 620, 9000 Gent, Belgium",Coupure Rechts 620,9000 Gent,9000,Gent,"476-620, Coupure Rechts, Papegaai, Gent, Oost-Vlaanderen, Vlaanderen, 9000, België / Belgique / Belgien"
BOTWISER,http://botwiser.com,Brussels,"Rue fossé aux Loups 11, 1000 Brussels, Belgium",Rue fossé aux Loups 11,1000 Brussels,1000,Brussels,
Chatbot Plus,http://chatbot-plus.com,Brussels,"Leuvensesteenweg 775, 1140 Brussel, Belgium",Leuvensesteenweg 775,1140 Brussel,1140,Brussel,"Chaussée de Louvain - Leuvensesteenweg, Paduwa, Evere, Brussel-Hoofdstad - Bruxelles-Capitale, Région de Bruxelles-Capitale - Brussels Hoofdstedelijk Gewest, 1140, België / Belgique / Belgien"
Chatlayer,https://chatlayer.ai/,Flanders,"Ankerrui 9, 2000 Antwerpen, Belgium",Ankerrui 9,2000 Antwerpen,2000,Antwerpen,"tank, 9, Ankerrui, Universiteitsbuurt, Antwerpen, Vlaanderen, 2000, België / Belgique / Belgien"
Clever,http://clever.be,Flanders,"Foreestelaan 1, Ghent 9000, Belgium",Foreestelaan 1,Ghent 9000,Ghent,9000,"Duke & Grace, 1, Foreestelaan, Ottergemse Dries, Gent, Oost-Vlaanderen, Vlaanderen, 9000, België / Belgique / Belgien"
Craftworkz,https://www.craftworkz.co/,Flanders,"Gaston Geenslaan 11, 3001 Leuven, Belgium",Gaston Geenslaan 11,3001 Leuven,3001,Leuven,"Health House, 11, Gaston Geenslaan, Wetenschapspark Arenberg, Heverlee, Leuven, Vlaams-Brabant, Vlaanderen, 3001, België / Belgique / Belgien"
FaqBot,http://www.faqbot.co,Wallonia,"Chau. de Bruxelles 408, 1300 Wavre, Belgium",Chau. de Bruxelles 408,1300 Wavre,1300,Wavre,
Lawren.io,http://lawren.io,Flanders,"Sint-Pietersvliet 7, 2000 Antwerpen, Belgium",Sint-Pietersvliet 7,2000 Antwerpen,2000,Antwerpen,"SyncTrace buitendienstoptimalisatie, 7, Sint-Pietersvliet, Schipperskwartier, Antwerpen, Vlaanderen, 2000, België / Belgique / Belgien"
LiNGUiNEO,http://www.linguineo.com,Flanders,"Schipvaartstraat 24 / 407, 3000 Leuven, Belgium",Schipvaartstraat 24 / 407,3000 Leuven,3000,Leuven,"Schipvaartstraat, Tweewaters, Leuven, Vlaams-Brabant, Vlaanderen, 3000, België / Belgique / Belgien"
OSWALD,https://www.oswald.ai/,Flanders,"Veldkant 33 A, 2550 Kontich, Belgium",Veldkant 33 A,2550 Kontich,2550,Kontich,"Cronos N.V., 33A, Veldkant, Kontich, Antwerpen, Vlaanderen, 2550, België / Belgique / Belgien"
Acapela Group,https://www.acapela-group.com/,Wallonia,"Bd Dolez 33, 7000 Mons, Belgium",Bd Dolez 33,7000 Mons,7000,Mons,"Acapela, 33, Boulevard Dolez, Quartier Rachot, Mons, Hainaut, Wallonie, 7000, België / Belgique / Belgien"
Avantopy,http://avantopy.com,Flanders,"Albert Stainierstraat 4, 3001 Leuven, Belgium",Albert Stainierstraat 4,3001 Leuven,3001,Leuven,"4, Albert Stainierstraat, Heverlee, Leuven, Vlaams-Brabant, Vlaanderen, 3000, België / Belgique / Belgien"
Iris,https://irisprosolutions.com/,Flanders,"Rue du Bosquet 10, 1348 Louvain-la-Neuve, Belgium",Rue du Bosquet 10,1348 Louvain-la-Neuve,1348,Louvain-la-Neuve,"Rue du Bosquet, Parc Einstein, Corbais, Mont-Saint-Guibert, Nivelles, Brabant wallon, Wallonie, 1435, België / Belgique / Belgien"
Mentis,https://thingks.io/,Brussels,"Rue du congrès BP 5, 1000 Brussels , Belgium",Rue du congrès BP 5,1000 Brussels,1000,Brussels,"Rue du Congrès - Congresstraat, Quartier des Libertés - Vrijheidswijk, Pentagone - Vijfhoek, Bruxelles - Brussel, Ville de Bruxelles - Stad Brussel, Brussel-Hoofdstad - Bruxelles-Capitale, Région de Bruxelles-Capitale - Brussels Hoofdstedelijk Gewest, 1000, België / Belgique / Belgien"
NLP Town,https://www.nlp.town/,Flanders,"Lange Lostraat 11, 3212 Lubbeek, Belgium",Lange Lostraat 11,3212 Lubbeek,3212,Lubbeek,"11, Lange Lostraat, Kessel-Lo, Pellenberg, Lubbeek, Leuven, Vlaams-Brabant, Vlaanderen, 3212, België / Belgique / Belgien"
Say It Labs,http://www.sayitlabs.com,Flanders,"Domeinstraat 58, 3010 Leuven, Belgium",Domeinstraat 58,3010 Leuven,3010,Leuven,"58, Domeinstraat, Kesseldal, Beneden-Kessel, Kessel-Lo, Leuven, Vlaams-Brabant, Vlaanderen, 3010, België / Belgique / Belgien"
SmartSpoken,http://www.thecofoundry.co/investments-1/2016/12/29/smartspoken,Flanders,"Lange Gasthuisstraat 29, 2000 Antwerpen, Belgium",Lange Gasthuisstraat 29,2000 Antwerpen,2000,Antwerpen,"imec Antwerpen, 29-31, Lange Gasthuisstraat, Wilde Zee, Antwerpen, Vlaanderen, 2000, België / Belgique / Belgien"
Textgain,http://www.textgain.com,Flanders,"Lodewijk van Berckenlaan 180/2, 2140 Antwerpen, Belgium",Lodewijk van Berckenlaan 180/2,2140 Antwerpen,2140,Antwerpen,"Lodewijk Van Berckenlaan, Borgerhout, Antwerpen, Vlaanderen, 2140, België / Belgique / Belgien"
ThinkNext,http://www.thinknext.be,Flanders,"Minderbroedersstraat 17/2, 3000 Leuven, Belgium",Minderbroedersstraat 17/2,3000 Leuven,3000,Leuven,"Minderbroedersstraat, Hertogensite, Leuven, Vlaams-Brabant, Vlaanderen, 3000, België / Belgique / Belgien"
Winston Analytics,http://www.winston-analytics.com,Flanders,"Holstraat 44, 9000 Gent, Belgium",Holstraat 44,9000 Gent,9000,Gent,"18-44, Holstraat, Papegaai, Gent, Oost-Vlaanderen, Vlaanderen, 9000, België / Belgique / Belgien"
Acic,http://www.acic.eu/fr/,Wallonia,"Bd Initialis 28, 7000 Mons, Belgium",Bd Initialis 28,7000 Mons,7000,Mons,"ACIC, 28, Boulevard Initialis, Parc scientifique Initialis, Mons, Hainaut, Wallonie, 7000, België / Belgique / Belgien"
Crodeon Tech.,https://www.crodeon.com/,Flanders,"Technologiepark-Zwijnaarde 82, 9052 Gent, Belgium",Technologiepark-Zwijnaarde 82,9052 Gent,9052,Gent,"Life-ID, 82, Technologiepark-Zwijnaarde, Wetenschapspark Ardoyen, Zwijnaarde, Gent, Oost-Vlaanderen, Vlaanderen, 9052, België / Belgique / Belgien"
EMDYN,https://www.emdyn.com/,Flanders,"Gaston Crommenlaan 8, 9050 Gent, Belgium",Gaston Crommenlaan 8,9050 Gent,9050,Gent,"Arcadis, 8, Gaston Crommenlaan, Bellevue, Ledeberg, Gent, Oost-Vlaanderen, Vlaanderen, 9050, België / Belgique / Belgien"
Engine27,http://www.engine27.be,Flanders,"Generaal Armstrongweg 1, 2020 Antwerpen, Belgium",Generaal Armstrongweg 1,2020 Antwerpen,2020,Antwerpen,"Digipolis 2, 1, Generaal Armstrongweg, Kiel, Antwerpen, Vlaanderen, 2020, België / Belgique / Belgien"
Entelec Control Systems,https://www.entelec.eu/,Flanders,"Wetenschapspark 25, 3590 Diepenbeek, Belgium",Wetenschapspark 25,3590 Diepenbeek,3590,Diepenbeek,"Entelec, 25, Wetenschapspark, Diepenbeek, Hasselt, Limburg, Vlaanderen, 3590, België / Belgique / Belgien"
Hozint,https://www.hozint.com/,Brussels,"Rue Henri Van Zuylen 36, 1180 Uccle, Belgium",Rue Henri Van Zuylen 36,1180 Uccle,1180,Uccle,"36, Rue Henri Van Zuylen - Henri Van Zuylenstraat, Stalle, Uccle - Ukkel, Brussel-Hoofdstad - Bruxelles-Capitale, Région de Bruxelles-Capitale - Brussels Hoofdstedelijk Gewest, 1180, België / Belgique / Belgien"
IP Metro,https://ipmetro.com/,Flanders,"Kerselaarstraat 28, 9820 Merelbeke, Belgium",Kerselaarstraat 28,9820 Merelbeke,9820,Merelbeke,"Kerselaarstraat, Merelbeke, Gent, Oost-Vlaanderen, Vlaanderen, 9820, België / Belgique / Belgien"
Kerberos,http://kerberos.io,Flanders,"Tiensesteenweg 170, 3001 Leuven, Belgium",Tiensesteenweg 170,3001 Leuven,3001,Leuven,"170, Tiensesteenweg, Belle-Vue, Heverlee, Leuven, Vlaams-Brabant, Vlaanderen, België / Belgique / Belgien"
Mauhn,http://mauhn.com,Flanders,"Désiré Toeffaertstraat 34, 9050 Gent, Belgium",Désiré Toeffaertstraat 34,9050 Gent,9050,Gent,"34, Désiré Toeffaertstraat, Ledeberg, Gent, Oost-Vlaanderen, Vlaanderen, 9050, België / Belgique / Belgien"
Mediabos,https://www.mediabos.be/,Wallonia,"Lohirville 22A à, 4890 Thimister-Clermont, Belgium",Lohirville 22A à,4890 Thimister-Clermont,4890,Thimister-Clermont,"Lohirville, Thimister-Clermont, Verviers, Liège, Wallonie, 4890, België / Belgique / Belgien"
Nviso,http://www.nviso.be,Brussels,"Guimardstraat 8, 1000 Brussel, Belgium",Guimardstraat 8,1000 Brussel,1000,Brussel,"NVISO, 8, Rue Guimard - Guimardstraat, Quartier européen - Europese Wijk, Bruxelles - Brussel, Ville de Bruxelles - Stad Brussel, Brussel-Hoofdstad - Bruxelles-Capitale, Région de Bruxelles-Capitale - Brussels Hoofdstedelijk Gewest, 1000, België / Belgique / Belgien"
Phished,http://phished.be,Flanders,"138, Bondgenotenlaan, 3000 Leuven, Belgium",138,"Bondgenotenlaan, 3000 Leuven","Bondgenotenlaan,",3000 Leuven,"Ertzberg / Bringme, 138, Bondgenotenlaan, Sint-Maartensdal, Leuven, Vlaams-Brabant, Vlaanderen, 3000, België / Belgique / Belgien"
Qualitics,http://www.qualitics.eu,Wallonia,"Rue de Sclaigneau 657, 5300 Vezin, Belgium",Rue de Sclaigneau 657,5300 Vezin,5300,Vezin,
Roborana,http://roborana.be,Flanders,"Veldkant 33b, 2550 Kontich, Belgium",Veldkant 33b,2550 Kontich,2550,Kontich,"33B, Veldkant, Kontich, Antwerpen, Vlaanderen, 2550, België / Belgique / Belgien"
Senhive,http://senhive.com,Flanders,"Lichtenberglaan 1090, 3800 Sint-Truiden, Belgium",Lichtenberglaan 1090,3800 Sint-Truiden,3800,Sint-Truiden,"DronePort Cuisine, 1090, Lichtenberglaan, Sint-Truiden, Hasselt, Limburg, Vlaanderen, 3800, België / Belgique / Belgien"
sweepatic,http:// https://www.sweepatic.com,Flanders,"Kapeldreef 60, 3001 Leuven, Belgium",Kapeldreef 60,3001 Leuven,3001,Leuven,"Innovatie- en Incubatiecentrum, 60, Kapeldreef, Heverlee, Leuven, Vlaams-Brabant, Vlaanderen, 3001, België / Belgique / Belgien"
Actonomy,https://www.googleadservices.com/pagead/aclk?sa=L&ai=DChcSEwihua69rO7tAhWChtUKHb8DDx8YABAAGgJ3cw&ohost=www.google.com&cid=CAESQOD2wAaMm978LFJgSpSJVPPCWzil5ja8i25J7R6DaC48uyp9q5QQJf2MrcJeabi9ovIl7ijunPuaL4-fv_I2TsE&sig=AOD64_3nnSJs5bnAPLHiU0joRkn0cFavTA&q&adurl&ved=2ahUKEwj06qe9rO7tAhUN8BoKHZlFALkQ0Qx6BAgFEAE,Flanders,"Xavier de Cocklaan 68, 9831 Sint-Martens-Latem, Belgium",Xavier de Cocklaan 68,9831 Sint-Martens-Latem,9831,Sint-Martens-Latem,"68, Xavier De Cocklaan, Deurle, Sint-Martens-Latem, Gent, Oost-Vlaanderen, Vlaanderen, 9831, België / Belgique / Belgien"
Allthingsblue,http://allthingsblue.eu,Flanders,"Josse Biesmanstraat 60, 1560 Hoeilaart, Belgium",Josse Biesmanstraat 60,1560 Hoeilaart,1560,Hoeilaart,
AlterEdu,http://www.alteredu.be,Flanders,"Kantersteen 10, 1000 Brussel, Belgium",Kantersteen 10,1000 Brussel,1000,Brussel,"Le Wagon, 10, Cantersteen - Kantersteen, Quartier Royal - Koninklijke Wijk, Pentagone - Vijfhoek, Bruxelles - Brussel, Ville de Bruxelles - Stad Brussel, Brussel-Hoofdstad - Bruxelles-Capitale, Région de Bruxelles-Capitale - Brussels Hoofdstedelijk Gewest, 1000, België / Belgique / Belgien"
BeWorkHappy,http://www.beworkhappy.be,Flanders,"Otto Veniusstraat 9, 2000 Antwerpen , Belgium",Otto Veniusstraat 9,2000 Antwerpen,2000,Antwerpen,"9, Otto Veniusstraat, Theaterbuurt, Antwerpen, Vlaanderen, 2000, België / Belgique / Belgien"
Conversation Starter,https://www.conversationstarter.net/,Flanders,"Borsbeeksebrug 34, 2600 Antwerp, Belgium",Borsbeeksebrug 34,2600 Antwerp,2600,Antwerp,"Park Inn, 34, Borsbeeksebrug, Groenenhoek, Berchem, Antwerpen, Vlaanderen, 2600, België / Belgique / Belgien"
EngineerX,http://www.engineerx.com,Flanders,"Belgicastraat 5/bus 2, 1930 Zaventem, Belgium",Belgicastraat 5/bus 2,1930 Zaventem,1930,Zaventem,
Hirering,http://www.hirering.eu,Wallonia,"Cours Saint Michel 30A, 1040 Etterbeek, Belgium",Cours Saint Michel 30A,1040 Etterbeek,1040,Etterbeek,"Cours Saint-Michel - Sint-Michielswarande, Etterbeek, Brussel-Hoofdstad - Bruxelles-Capitale, Région de Bruxelles-Capitale - Brussels Hoofdstedelijk Gewest, 1040, België / Belgique / Belgien"
ImplicitMeasures,https://implicitmeasures.com/,Flanders,"Technologiepark 82, 9052 Gent, Belgium",Technologiepark 82,9052 Gent,9052,Gent,"Life-ID, 82, Technologiepark-Zwijnaarde, Wetenschapspark Ardoyen, Zwijnaarde, Gent, Oost-Vlaanderen, Vlaanderen, 9052, België / Belgique / Belgien"
JiGSO,http://jigso.com,Flanders,"Antwerpse Steenweg 61, 2660 Antwerpen, Belgium",Antwerpse Steenweg 61,2660 Antwerpen,2660,Antwerpen,"59-61, Antwerpsesteenweg, Hertogvelden, Hoboken, Antwerpen, Vlaanderen, 2660, België / Belgique / Belgien"
Jobgether,https://jobgether.com/,Brussels,"avenue du Prince de Ligne 91/3, 1180 Uccle, Belgium",avenue du Prince de Ligne 91/3,1180 Uccle,1180,Uccle,"Avenue du Prince de Ligne - Prins de Lignelaan, Saint-Job - Sint-Job, Uccle - Ukkel, Brussel-Hoofdstad - Bruxelles-Capitale, Région de Bruxelles-Capitale - Brussels Hoofdstedelijk Gewest, 1180, België / Belgique / Belgien"
Karamel.one,https://karamel.one/,Flanders,"Edward Pynaertkaai 93, 9000 Gent, Belgium",Edward Pynaertkaai 93,9000 Gent,9000,Gent,"93, Edward Pynaertkaai, Brusselse Poort, Gent, Oost-Vlaanderen, Vlaanderen, 9000, België / Belgique / Belgien"
ShiftMeApp,http://www.restaurant.shiftmeapp.com,Brussels,"Louizalaan 523, 1050 Brussel, Belgium",Louizalaan 523,1050 Brussel,1050,Brussel,"Mobilosoft, 523, Avenue Louise - Louizalaan, La Cambre - Ter Kameren, Bruxelles - Brussel, Ville de Bruxelles - Stad Brussel, Brussel-Hoofdstad - Bruxelles-Capitale, Région de Bruxelles-Capitale - Brussels Hoofdstedelijk Gewest, 1050, België / Belgique / Belgien"
Sympl,https://sympl.be/,Flanders,"Rijnkaai 37/bus 4, 2000 Antwerpen, Belgium",Rijnkaai 37/bus 4,2000 Antwerpen,2000,Antwerpen,
Techwolf,http://www.techwolf.be,Flanders,"Overzet 14b, 9000 Gent, Belgium",Overzet 14b,9000 Gent,9000,Gent,"Overzet, Ekkergem, Gent, Oost-Vlaanderen, Vlaanderen, 9000, België / Belgique / Belgien"
theMatchbox,http://thematchbox.be,Flanders,"Corluylei 43, 2150 Borsbeek, Belgium",Corluylei 43,2150 Borsbeek,2150,Borsbeek,"43B, Corluylei, Rooibos, Borsbeek, Antwerpen, Vlaanderen, 2150, België / Belgique / Belgien"
Traicie,http://traicie.com,Flanders,"Deinsesteenweg 114, 9031 Gent, Belgium",Deinsesteenweg 114,9031 Gent,9031,Gent,"114, Deinsesteenweg, Drongen, Gent, Oost-Vlaanderen, Vlaanderen, 9031, België / Belgique / Belgien"
Adunio,http://www.adun.io,Flanders,"Luchthavenlaan 27 / 56, 1800 Vilvoorde, Belgium",Luchthavenlaan 27 / 56,1800 Vilvoorde,1800,Vilvoorde,"Luchthavenlaan, Vilvoorde, Halle-Vilvoorde, Vlaams-Brabant, Vlaanderen, 1800, België / Belgique / Belgien"
Apptweak,http://www.apptweak.com,Brussels,"Louizalaan 235, 1050 Brussel, Belgium",Louizalaan 235,1050 Brussel,1050,Brussel,"235, Avenue Louise - Louizalaan, La Cambre - Ter Kameren, Bruxelles - Brussel, Ville de Bruxelles - Stad Brussel, Brussel-Hoofdstad - Bruxelles-Capitale, Région de Bruxelles-Capitale - Brussels Hoofdstedelijk Gewest, 1000, België / Belgique / Belgien"
ASKOLI,http://www.askoli.net,Wallonia,"Avenue Melina Mercouri 9, 7000 Mons, Belgium",Avenue Melina Mercouri 9,7000 Mons,7000,Mons,"Wallonia Conference Center of Mons, 9, Avenue Mélina Mercouri, Mons, Hainaut, Wallonie, 7000, België / Belgique / Belgien"
BossData,https://bossdata.be/contact/,Flanders,"Broederminstraat 9, 2018 Antwerpen, Belgium",Broederminstraat 9,2018 Antwerpen,2018,Antwerpen,"9, Broederminstraat, Brederode, Antwerpen, Vlaanderen, 2018, België / Belgique / Belgien"
Co-libry,https://co-libry.com/,Flanders,"Antoinette Vandeputtepad 25, 9000 Gent, Belgium",Antoinette Vandeputtepad 25,9000 Gent,9000,Gent,"25, Antoinette Vandeputtepad, Ryhovepark, Gent, Oost-Vlaanderen, Vlaanderen, 9000, België / Belgique / Belgien"
Cropland,http://www.cropland.be,Flanders,"Willem Van Laarstraat 86 bus 02, 2600 Antwerpen, Belgium",Willem Van Laarstraat 86 bus 02,2600 Antwerpen,2600,Antwerpen,
Customer-Care AI,http://www.customer-care.ai/,Brussels,"Zuiderpoort Gaston Crommenlaan 14/C1.1, 9000 Gent, Belgium",Zuiderpoort Gaston Crommenlaan 14/C1.1,9000 Gent,9000,Gent,
eRowz,http://www.site-annonce.be,Wallonia,"Rue Jean Burgers 2, 7850 Enghien, Belgium",Rue Jean Burgers 2,7850 Enghien,7850,Enghien,"Rue Jean Burgers, Marcq, Enghien, Ath, Hainaut, Wallonie, 7850, België / Belgique / Belgien"
Hello Customer,https://www.hellocustomer.com/en/,Flanders,"Zuiderpoort Gaston Crommenlaan 14/C1.1, 9000 Gent, Belgium",Zuiderpoort Gaston Crommenlaan 14/C1.1,9000 Gent,9000,Gent,
Hive CPQ,http://www.hivecpq.com,Flanders,"Kleindokkaai 17, 9000 Gent, Belgium",Kleindokkaai 17,9000 Gent,9000,Gent,"Kleindokkaai, Dampoortwijk, Gent, Oost-Vlaanderen, Vlaanderen, 9000, België / Belgique / Belgien"
Instaon,https://instaon.io/fr,Brussels,"Rue de France 44, 7711 Mouscron, Belgium",Rue de France 44,7711 Mouscron,7711,Mouscron,"44, Rue de France, Dottignies, Mouscron, Tournai-Mouscron, Hainaut, Wallonie, 7711, België / Belgique / Belgien"
Ittention,https://www.ittention.com/,Wallonia,"Bd Dolez, 7000 Mons, Belgium",Bd Dolez,7000 Mons,7000,Mons,"Boulevard Dolez, Quartier Rachot, Mons, Hainaut, Wallonie, 7000, België / Belgique / Belgien"
Juyo Analytics,http://juyoanalytics.com,Brussels,"4 Rue Saint Lazare, 1210 Brussels, Belgium",4 Rue Saint Lazare,1210 Brussels,1210,Brussels,"Rue Saint-Lazare - Sint-Lazarusstraat, Saint-Josse-ten-Noode - Sint-Joost-ten-Node, Brussel-Hoofdstad - Bruxelles-Capitale, Région de Bruxelles-Capitale - Brussels Hoofdstedelijk Gewest, 1210, België / Belgique / Belgien"
Koopol,http://koopol.com,Wallonia,"Av. du Général Michel 1e, 6000 Charleroi, Belgium",Av. du Général Michel 1e,6000 Charleroi,6000,Charleroi,"Voir et Savoir asbl, 1E, Avenue Général Michel, Charleroi, Hainaut, Wallonie, 6000, België / Belgique / Belgien"
LR Physics Consulting,https://lrdatascience.com/,Wallonia,"Rue de Corthys 11, 4280 Hannut, Belgium",Rue de Corthys 11,4280 Hannut,4280,Hannut,"11, Rue de Corthys, Hannut, Waremme, Liège, Wallonie, 4280, België / Belgique / Belgien"
Marketing & more,https://www.marketingandmore.be/,Flanders,"Veldkant 33, 2250 Kontich, Belgium",Veldkant 33,2250 Kontich,2250,Kontich,"Cronos N.V., 33A, Veldkant, Kontich, Antwerpen, Vlaanderen, 2550, België / Belgique / Belgien"
Memovie,http://www.memovie.be,Wallonia,"Av. Einstein 11, 1300 Wavre, Belgium",Av. Einstein 11,1300 Wavre,1300,Wavre,"Avenue Einstein, Wavre, Nivelles, Brabant wallon, Wallonie, 1300, België / Belgique / Belgien"
ML2Grow,http://www.ml2grow.com,Flanders,"Reigerstraat 8, 9000 Gent, Belgium",Reigerstraat 8,9000 Gent,9000,Gent,"Vorming Plus Gent-Eeklo, 8, Reigerstraat, Stationsbuurt Zuid, Gent, Oost-Vlaanderen, Vlaanderen, 9000, België / Belgique / Belgien"
MoodMe,http://www.moodme.biz,Wallonia,"Rue des Vertes Haies 15, 1400 Nivelles, Belgium",Rue des Vertes Haies 15,1400 Nivelles,1400,Nivelles,"15, Rue des Vertes Haies, Nivelles, Brabant wallon, Wallonie, 1400, België / Belgique / Belgien"
Novable,https://novable.com/,Brussels,"Terhulpensesteenweg 150, 1170 Watermaal-Bosvoorde, Belgium",Terhulpensesteenweg 150,1170 Watermaal-Bosvoorde,1170,Watermaal-Bosvoorde,
Plunch,http://www.plunch.net,Wallonia,"Rue de l'Etat-Tiers 5 Boîte 31, 4000 Liège, Belgium",Rue de l'Etat-Tiers 5 Boîte 31,4000 Liège,4000,Liège,
Predicube,http://www.predicube.com,Flanders,"Grotesteenweg 43, 2600 Antwerpen, Belgium",Grotesteenweg 43,2600 Antwerpen,2600,Antwerpen,"Grotesteenweg, Nieuw Kwartier, Berchem, Antwerpen, Vlaanderen, 2600, België / Belgique / Belgien"
PRICING PACT,https://www.pricingpact.com/,Brussels,"Oude Vijversstraat 55, 1190 Vorst, Belgium",Oude Vijversstraat 55,1190 Vorst,1190,Vorst,"Manythink, 55, Rue des Anciens Étangs - Oude Vijversstraat, Audi Brussels SA/NV, Forest - Vorst, Brussel-Hoofdstad - Bruxelles-Capitale, Région de Bruxelles-Capitale - Brussels Hoofdstedelijk Gewest, 1190, België / Belgique / Belgien"
Salesflare,https://salesflare.com/,Flanders,"Rijnkaai 37 box 4, 2000 Antwerp, Belgium",Rijnkaai 37 box 4,2000 Antwerp,2000,Antwerp,
Showpad,http://www.showpad.com,Flanders,"Moutstraat 62, 9000 Gent, Belgium",Moutstraat 62,9000 Gent,9000,Gent,"The Office, 54;56;58;60;62;64;66;68;70;72;74;76;78;80, Moutstraat, Ottergemse Dries, Gent, Oost-Vlaanderen, Vlaanderen, 9000, België / Belgique / Belgien"
SIRIUS Insight,http://www.siriusinsight.be,Wallonia,"Av. Alexander Fleming 10, 1348 Ottignies-Louvain-la-Neuve, Belgium",Av. Alexander Fleming 10,1348 Ottignies-Louvain-la-Neuve,1348,Ottignies-Louvain-la-Neuve,
Sortlist,https://www.sortlist.com/,Wallonia,"Avenue Zénobe Gramme 29, 1300 Wavre, Belgium",Avenue Zénobe Gramme 29,1300 Wavre,1300,Wavre,"Sortlist, 29, Avenue Zénobe Gramme, Bierges, Wavre, Nivelles, Brabant wallon, Wallonie, 1300, België / Belgique / Belgien"
Sparkcentral,http://www.twitspark.com,Flanders,"Kempische steenweg 311, 3500 Hasselt, Belgium",Kempische steenweg 311,3500 Hasselt,3500,Hasselt,"Corda.Cuisine, 311, Kempische Steenweg, Banneux, Hasselt, Limburg, Vlaanderen, 3500, België / Belgique / Belgien"
Spott,http://www.appiness.mobi,Flanders,"Groeneweg 17, 9320 Aalst, Belgium",Groeneweg 17,9320 Aalst,9320,Aalst,"17, Groeneweg, Erembodegem, Aalst, Oost-Vlaanderen, Vlaanderen, 9320, België / Belgique / Belgien"
Taglayer,http://www.taglayer.com,Flanders,"Oude Koornmarkt 28/Floor 2, 2000 Antwerpen, Belgium",Oude Koornmarkt 28/Floor 2,2000 Antwerpen,2000,Antwerpen,
Trackuity,http://www.trackuity.com,Flanders,"Ridderstraat 15, 9000 Gent, Belgium",Ridderstraat 15,9000 Gent,9000,Gent,"15;15A-15D, Ridderstraat, Sint-Jacobs, Gent, Oost-Vlaanderen, Vlaanderen, 9000, België / Belgique / Belgien"
Verbolia,http://verbolia.com,Wallonia,"Rue Jean Burgers 2, 7850 Edingen, Belgium",Rue Jean Burgers 2,7850 Edingen,7850,Edingen,"Rue Jean Burgers, Marcq, Enghien, Ath, Hainaut, Wallonie, 7850, België / Belgique / Belgien"
Willow,http://www.contento.us,Flanders,"Hüttenweg 4, 97877 Wertheim, Duitsland, Belgium",Hüttenweg 4,"97877 Wertheim, Duitsland",97877,"Wertheim, Duitsland","4, Hüttenweg, Bestenheid, Wertheim, Main-Tauber-Kreis, Baden-Württemberg, 97877, Deutschland"
Alexandria.works,https://alexandria.works/findr/,Flanders,"Sint-Pietersvliet 7, 2000 Antwerpen, Belgium",Sint-Pietersvliet 7,2000 Antwerpen,2000,Antwerpen,"SyncTrace buitendienstoptimalisatie, 7, Sint-Pietersvliet, Schipperskwartier, Antwerpen, Vlaanderen, 2000, België / Belgique / Belgien"
Amethix,http://amethix.com,Flanders,"10 Cantersteen, 1000 Brussels, Belgium",10 Cantersteen,1000 Brussels,1000,Brussels,"Le Wagon, 10, Cantersteen - Kantersteen, Quartier Royal - Koninklijke Wijk, Pentagone - Vijfhoek, Bruxelles - Brussel, Ville de Bruxelles - Stad Brussel, Brussel-Hoofdstad - Bruxelles-Capitale, Région de Bruxelles-Capitale - Brussels Hoofdstedelijk Gewest, 1000, België / Belgique / Belgien"
BrightKnight,http://brightknight.eu,Brussels,"Schildknaapsstraat 48, 1000 Brussel, Belgium",Schildknaapsstraat 48,1000 Brussel,1000,Brussel,"48, Rue de l'Écuyer - Schildknaapsstraat, Îlot Sacré, Quartier du Centre - Centrumwijk, Pentagone - Vijfhoek, Bruxelles - Brussel, Ville de Bruxelles - Stad Brussel, Brussel-Hoofdstad - Bruxelles-Capitale, Région de Bruxelles-Capitale - Brussels Hoofdstedelijk Gewest, 1000, België / Belgique / Belgien"
Crunch Analytics,https://www.crunchanalytics.be/,Flanders,"Rodelijvekensstraat 28/bus 002, 9000 Gent, Belgium",Rodelijvekensstraat 28/bus 002,9000 Gent,9000,Gent,
Datascouts,https://datascouts.eu/,Flanders,"Wiedauwkaai 23, 9000 Gent, Belgium",Wiedauwkaai 23,9000 Gent,9000,Gent,"Wiedauwkaai, Tolhuis, Gent, Oost-Vlaanderen, Vlaanderen, 9000, België / Belgique / Belgien"
Dice,https://www.dice-cro.com/,Flanders,"Het Hofveld 6F, 1702 Groot-Bijgaarden, Belgium",Het Hofveld 6F,1702 Groot-Bijgaarden,1702,Groot-Bijgaarden,"Het Hofveld, Groot-Bijgaarden Zone Gosset, Groot-Bijgaarden, Dilbeek, Halle-Vilvoorde, Vlaams-Brabant, Vlaanderen, 1702, België / Belgique / Belgien"
Doccle,http://doccle.be,Brussels,"Heizel Esplanade PB 65, 1020 Brussel, Belgium",Heizel Esplanade PB 65,1020 Brussel,1020,Brussel,
Dual Lab,https://www.duallab.com/,Brussels,"Avenue des Villas 56/1, 1340 Ottignies-Louvain-la-Neuve, Belgium",Avenue des Villas 56/1,1340 Ottignies-Louvain-la-Neuve,1340,Ottignies-Louvain-la-Neuve,"Avenue des Villas, Ottignies, Ottignies-Louvain-la-Neuve, Nivelles, Brabant wallon, Wallonie, 1340, België / Belgique / Belgien"
Element 61,https://www.element61.be/en,Brussels,"Buro & Design Center - Esplanade 1, bus 96, 1020 Brussel, Belgium",Buro & Design Center - Esplanade 1,"bus 96, 1020 Brussel",bus,"96, 1020 Brussel",
i.Deeds,https://www.ideeds.be/en,Flanders,"Molenstraat 72, 8790 Waregem, Belgium",Molenstraat 72,8790 Waregem,8790,Waregem,"i.deeds, 72, Molenstraat, Gaverke, Waregem, Kortrijk, West-Vlaanderen, Vlaanderen, 8790, België / Belgique / Belgien"
Infofarm,https://infofarm.be/,Flanders,"Prins Boudewijnlaan 24E, 2550 Kontich, Belgium",Prins Boudewijnlaan 24E,2550 Kontich,2550,Kontich,"Prins Boudewijnlaan, Kontich, Antwerpen, Vlaanderen, 2550, België / Belgique / Belgien"
JetPack,http://jetpack.ai,Brussels,"Av. Victor Jacobs 78, 1040 Etterbeek, Belgium",Av. Victor Jacobs 78,1040 Etterbeek,1040,Etterbeek,"78, Avenue Victor Jacobs - Victor Jacobslaan, Etterbeek, Brussel-Hoofdstad - Bruxelles-Capitale, Région de Bruxelles-Capitale - Brussels Hoofdstedelijk Gewest, 1040, België / Belgique / Belgien"
Kensu,http://www.kensu.io,Wallonia,"Avenue Pré Aily 24, 4031 Angleur, Belgium",Avenue Pré Aily 24,4031 Angleur,4031,Angleur,"STAR-APIC, 24, Avenue Pré-Aily, Sart Tilman, Liège, Wallonie, 4031, België / Belgique / Belgien"
Klassif.ai,http://www.klassif.ai,Flanders,"Gaston Geenslaan 11, 3001 Leuven, Belgium",Gaston Geenslaan 11,3001 Leuven,3001,Leuven,"Health House, 11, Gaston Geenslaan, Wetenschapspark Arenberg, Heverlee, Leuven, Vlaams-Brabant, Vlaanderen, 3001, België / Belgique / Belgien"
Marple,https://getmarple.io/,Flanders,"355 Adelaide St W Suite 100, Toronto, ON M5V 1S2, Canada, Belgium",355 Adelaide St W Suite 100,"Toronto, ON M5V 1S2, Canada","Toronto,","ON M5V 1S2, Canada",
Metamaze,https://metamaze.eu/,Flanders,"Oudeleeuwenrui 39, 2000 Antwerpen, Belgium",Oudeleeuwenrui 39,2000 Antwerpen,2000,Antwerpen,"37-39, Oudeleeuwenrui, Schipperskwartier, Antwerpen, Vlaanderen, 2000, België / Belgique / Belgien"
Moonoia,https://www.moonoia.com/,Wallonia,"Av. Georges Lemaître 58a, 6041 Charleroi, Belgium",Av. Georges Lemaître 58a,6041 Charleroi,6041,Charleroi,"Avenue Georges Lemaître, Aéropole, Gosselies, Charleroi, Hainaut, Wallonie, 6041, België / Belgique / Belgien"
Open Analytics,http://www.openanalytics.eu,Flanders,"Jupiterstraat 20, 2600 Antwerpen, Belgium",Jupiterstraat 20,2600 Antwerpen,2600,Antwerpen,"20, Jupiterstraat, Groenenhoek, Berchem, Antwerpen, Vlaanderen, 2600, België / Belgique / Belgien"
Python Predictions,https://www.pythonpredictions.com/,Brussels,"Roger Vandendriesschelaan 9, 1150 Brussel, Belgium",Roger Vandendriesschelaan 9,1150 Brussel,1150,Brussel,"9, Avenue Roger Vandendriessche - Roger Vandendriesschelaan, Woluwe-Saint-Pierre - Sint-Pieters-Woluwe, Brussel-Hoofdstad - Bruxelles-Capitale, Région de Bruxelles-Capitale - Brussels Hoofdstedelijk Gewest, 1150, België / Belgique / Belgien"
Robonext,http://www.robonext.eu,Flanders,"Vestinglaan 55, 2650 Edegem, Belgium",Vestinglaan 55,2650 Edegem,2650,Edegem,"Fort 5, 55, Vestinglaan, Wilrijk, Edegem, Antwerpen, Vlaanderen, 2650, België / Belgique / Belgien"
Solventure Life,http://www.solventuregroup.com,Flanders,"Bus 18, Blue Tower 1, Sluisweg 1, 9000 Gent, Belgium",Bus 18,"Blue Tower 1, Sluisweg 1, 9000 Gent",Blue,"Tower 1, Sluisweg 1, 9000 Gent",
TIMI,https://timi.eu,Brussels,"Sint-Denijslaan 253, 9000 Gent, Belgium",Sint-Denijslaan 253,9000 Gent,9000,Gent,"Timi Upkot, 253, Sint-Denijslaan, Rijsenbergwijk, Gent, Oost-Vlaanderen, Vlaanderen, 9000, België / Belgique / Belgien"
UgenTec,http://ugentec.com,Flanders,"Bedrijventerrein Hasselt Kiewit, Kempische Steenweg 303, 3500 Hasselt, Belgium",Bedrijventerrein Hasselt Kiewit,"Kempische Steenweg 303, 3500 Hasselt",Kempische,"Steenweg 303, 3500 Hasselt",
Uman.ai,http://uman.ai,Flanders,"Esplanade Oscar Van De Voorde 1, 9000 Gent, Belgium",Esplanade Oscar Van De Voorde 1,9000 Gent,9000,Gent,"1, Esplanade Oscar Van de Voorde, Rijsenbergwijk, Gent, Oost-Vlaanderen, Vlaanderen, 9000, België / Belgique / Belgien"
Valkuren,http://www.valkuren.com,Brussels,"Kantersteen 10/12, 1000 Brussel, Belgium",Kantersteen 10/12,1000 Brussel,1000,Brussel,"Cantersteen - Kantersteen, Quartier Royal - Koninklijke Wijk, Pentagone - Vijfhoek, Bruxelles - Brussel, Ville de Bruxelles - Stad Brussel, Brussel-Hoofdstad - Bruxelles-Capitale, Région de Bruxelles-Capitale - Brussels Hoofdstedelijk Gewest, 1000, België / Belgique / Belgien"
